state_fips,state,state_abbr,zipcode,county,city,citylower
36,New york,NY,6390,Suffolk,,
36,New york,NY,063HH,Suffolk,,
36,New york,NY,10001,New York,New york,new york
36,New york,NY,10002,New York,New york,new york
36,New york,NY,10003,New York,New york,new york
36,New york,NY,10004,New York,Governors island,governors island
36,New york,NY,10005,New York,New york,new york
36,New york,NY,10006,New York,New york,new york
36,New york,NY,10007,New York,New york,new york
36,New york,NY,10009,New York,New york,new york
36,New york,NY,10010,New York,New york,new york
36,New york,NY,10011,New York,New york,new york
36,New york,NY,10012,New York,New york,new york
36,New york,NY,10013,New York,New york,new york
36,New york,NY,10014,New York,New york,new york
36,New york,NY,10016,New York,New york,new york
36,New york,NY,10017,New York,New york,new york
36,New york,NY,10018,New York,New york,new york
36,New york,NY,10019,New York,New york,new york
36,New york,NY,10020,New York,New york,new york
36,New york,NY,10021,New York,New york,new york
36,New york,NY,10022,New York,New york,new york
36,New york,NY,10023,New York,New york,new york
36,New york,NY,10024,New York,New york,new york
36,New york,NY,10025,New York,New york,new york
36,New york,NY,10026,New York,New york,new york
36,New york,NY,10027,New York,New york,new york
36,New york,NY,10028,New York,New york,new york
36,New york,NY,10029,New York,New york,new york
36,New york,NY,10030,New York,New york,new york
36,New york,NY,10031,New York,New york,new york
36,New york,NY,10032,New York,New york,new york
36,New york,NY,10033,New York,New york,new york
36,New york,NY,10034,New York,New york,new york
36,New york,NY,10035,New York,New york,new york
36,New york,NY,10036,New York,New york,new york
36,New york,NY,10037,New York,New york,new york
36,New york,NY,10038,New York,New york,new york
36,New york,NY,10039,New York,New york,new york
36,New york,NY,10040,New York,New york,new york
36,New york,NY,10041,New York,New york,new york
36,New york,NY,10044,New York,New york,new york
36,New york,NY,10048,New York,New york,new york
36,New york,NY,10069,New York,Zcta 10069,zcta 10069
36,New york,NY,100HH,New York,New york,new york
36,New york,NY,10103,New York,New york,new york
36,New york,NY,10111,New York,New york,new york
36,New york,NY,10112,New York,New york,new york
36,New york,NY,10115,New York,New york,new york
36,New york,NY,10119,New York,New york,new york
36,New york,NY,10128,New York,New york,new york
36,New york,NY,10152,New York,New york,new york
36,New york,NY,10153,New York,New york,new york
36,New york,NY,10154,New York,New york,new york
36,New york,NY,10162,New York,New york,new york
36,New york,NY,10165,New York,New york,new york
36,New york,NY,10167,New York,New york,new york
36,New york,NY,10169,New York,New york,new york
36,New york,NY,10170,New York,New york,new york
36,New york,NY,10171,New York,New york,new york
36,New york,NY,10172,New York,New york,new york
36,New york,NY,10173,New York,New york,new york
36,New york,NY,10177,New York,New york,new york
36,New york,NY,10271,New York,New york,new york
36,New york,NY,10278,New York,New york,new york
36,New york,NY,10279,New York,New york,new york
36,New york,NY,10280,New York,New york,new york
36,New york,NY,10282,New York,New york,new york
36,New york,NY,102HH,New York,Zcta 102hh,zcta 102hh
36,New york,NY,10301,Richmond,Staten island,staten island
36,New york,NY,10302,Richmond,Staten island,staten island
36,New york,NY,10303,Richmond,Staten island,staten island
36,New york,NY,10304,Richmond,Staten island,staten island
36,New york,NY,10305,Richmond,Staten island,staten island
36,New york,NY,10306,Richmond,Staten island,staten island
36,New york,NY,10307,Richmond,Staten island,staten island
36,New york,NY,10308,Richmond,Staten island,staten island
36,New york,NY,10309,Richmond,Staten island,staten island
36,New york,NY,10310,Richmond,Staten island,staten island
36,New york,NY,10312,Richmond,Staten island,staten island
36,New york,NY,10314,Richmond,Staten island,staten island
36,New york,NY,103HH,Richmond,Zcta 103hh,zcta 103hh
36,New york,NY,10451,Bronx,Bronx,bronx
36,New york,NY,10452,Bronx,Bronx,bronx
36,New york,NY,10453,Bronx,Bronx,bronx
36,New york,NY,10454,Bronx,Bronx,bronx
36,New york,NY,10455,Bronx,Bronx,bronx
36,New york,NY,10456,Bronx,Bronx,bronx
36,New york,NY,10457,Bronx,Bronx,bronx
36,New york,NY,10458,Bronx,Bronx,bronx
36,New york,NY,10459,Bronx,Bronx,bronx
36,New york,NY,10460,Bronx,Bronx,bronx
36,New york,NY,10461,Bronx,Bronx,bronx
36,New york,NY,10462,Bronx,Bronx,bronx
36,New york,NY,10463,Bronx,Bronx,bronx
36,New york,NY,10464,Bronx,Bronx,bronx
36,New york,NY,10465,Bronx,Bronx,bronx
36,New york,NY,10466,Bronx,Bronx,bronx
36,New york,NY,10467,Bronx,Bronx,bronx
36,New york,NY,10468,Bronx,Bronx,bronx
36,New york,NY,10469,Bronx,Bronx,bronx
36,New york,NY,10470,Bronx,Bronx,bronx
36,New york,NY,10471,Bronx,Bronx,bronx
36,New york,NY,10472,Bronx,Bronx,bronx
36,New york,NY,10473,Bronx,Bronx,bronx
36,New york,NY,10474,Bronx,Bronx,bronx
36,New york,NY,10475,Bronx,Bronx,bronx
36,New york,NY,104HH,Bronx,Zcta 104hh,zcta 104hh
36,New york,NY,10501,Westchester,Amawalk,amawalk
36,New york,NY,10502,Westchester,Ardsley,ardsley
36,New york,NY,10503,Westchester,Ardsley on hudso,ardsley on hudso
36,New york,NY,10504,Westchester,Armonk,armonk
36,New york,NY,10506,Westchester,Bedford,bedford
36,New york,NY,10507,Westchester,Bedford hills,bedford hills
36,New york,NY,10509,Putnam,Brewster,brewster
36,New york,NY,10510,Westchester,Briarcliff manor,briarcliff manor
36,New york,NY,10511,Westchester,Buchanan,buchanan
36,New york,NY,10512,Putnam,Carmel,carmel
36,New york,NY,10514,Westchester,Chappaqua,chappaqua
36,New york,NY,10516,Putnam,Cold spring,cold spring
36,New york,NY,10518,Westchester,Cross river,cross river
36,New york,NY,10519,Westchester,Croton falls,croton falls
36,New york,NY,10520,Westchester,Croton on hudson,croton on hudson
36,New york,NY,10522,Westchester,Dobbs ferry,dobbs ferry
36,New york,NY,10523,Westchester,Elmsford,elmsford
36,New york,NY,10524,Putnam,Garrison,garrison
36,New york,NY,10526,Westchester,Goldens bridge,goldens bridge
36,New york,NY,10527,Westchester,Granite springs,granite springs
36,New york,NY,10528,Westchester,Harrison,harrison
36,New york,NY,10530,Westchester,Hartsdale,hartsdale
36,New york,NY,10532,Westchester,Hawthorne,hawthorne
36,New york,NY,10533,Westchester,Irvington,irvington
36,New york,NY,10535,Westchester,Jefferson valley,jefferson valley
36,New york,NY,10536,Westchester,Katonah,katonah
36,New york,NY,10537,Putnam,Lake peekskill,lake peekskill
36,New york,NY,10538,Westchester,Larchmont,larchmont
36,New york,NY,10541,Putnam,Mahopac,mahopac
36,New york,NY,10543,Westchester,Mamaroneck,mamaroneck
36,New york,NY,10546,Westchester,Millwood,millwood
36,New york,NY,10547,Westchester,Mohegan lake,mohegan lake
36,New york,NY,10548,Westchester,Montrose,montrose
36,New york,NY,10549,Westchester,Mount kisco,mount kisco
36,New york,NY,10550,Westchester,Mount vernon,mount vernon
36,New york,NY,10552,Westchester,Mount vernon,mount vernon
36,New york,NY,10553,Westchester,Mount vernon,mount vernon
36,New york,NY,10560,Westchester,North salem,north salem
36,New york,NY,10562,Westchester,Ossining,ossining
36,New york,NY,10566,Westchester,Cortlandt manor,cortlandt manor
36,New york,NY,10567,Westchester,Zcta 10567,zcta 10567
36,New york,NY,10570,Westchester,Pleasantville,pleasantville
36,New york,NY,10573,Westchester,Rye brook,rye brook
36,New york,NY,10576,Westchester,Pound ridge,pound ridge
36,New york,NY,10577,Westchester,Purchase,purchase
36,New york,NY,10578,Westchester,Purdys,purdys
36,New york,NY,10579,Putnam,Putnam valley,putnam valley
36,New york,NY,10580,Westchester,Rye,rye
36,New york,NY,10583,Westchester,Heathcote,heathcote
36,New york,NY,10588,Westchester,Shrub oak,shrub oak
36,New york,NY,10589,Westchester,Somers,somers
36,New york,NY,10590,Westchester,South salem,south salem
36,New york,NY,10591,Westchester,North tarrytown,north tarrytown
36,New york,NY,10594,Westchester,Thornwood,thornwood
36,New york,NY,10595,Westchester,Valhalla,valhalla
36,New york,NY,10597,Westchester,Waccabuc,waccabuc
36,New york,NY,10598,Westchester,Yorktown heights,yorktown heights
36,New york,NY,105HH,Putnam,Zcta 105hh,zcta 105hh
36,New york,NY,10601,Westchester,White plains,white plains
36,New york,NY,10603,Westchester,White plains,white plains
36,New york,NY,10604,Westchester,East white plain,east white plain
36,New york,NY,10605,Westchester,White plains,white plains
36,New york,NY,10606,Westchester,White plains,white plains
36,New york,NY,10607,Westchester,White plains,white plains
36,New york,NY,106HH,Westchester,Zcta 106hh,zcta 106hh
36,New york,NY,10701,Westchester,Yonkers,yonkers
36,New york,NY,10703,Westchester,Yonkers,yonkers
36,New york,NY,10704,Westchester,Yonkers,yonkers
36,New york,NY,10705,Westchester,Yonkers,yonkers
36,New york,NY,10706,Westchester,Hastings on huds,hastings on huds
36,New york,NY,10707,Westchester,Tuckahoe,tuckahoe
36,New york,NY,10708,Westchester,Bronxville,bronxville
36,New york,NY,10709,Westchester,Eastchester,eastchester
36,New york,NY,10710,Westchester,Yonkers,yonkers
36,New york,NY,107HH,Westchester,Zcta 107hh,zcta 107hh
36,New york,NY,10801,Westchester,New rochelle,new rochelle
36,New york,NY,10803,Westchester,Pelham,pelham
36,New york,NY,10804,Westchester,New rochelle,new rochelle
36,New york,NY,10805,Westchester,New rochelle,new rochelle
36,New york,NY,108HH,Westchester,Zcta 108hh,zcta 108hh
36,New york,NY,10901,Rockland,Suffern,suffern
36,New york,NY,10913,Rockland,Blauvelt,blauvelt
36,New york,NY,10916,Orange,Campbell hall,campbell hall
36,New york,NY,10917,Orange,Central valley,central valley
36,New york,NY,10918,Orange,Chester,chester
36,New york,NY,10919,Orange,Circleville,circleville
36,New york,NY,10920,Rockland,Congers,congers
36,New york,NY,10921,Orange,Florida,florida
36,New york,NY,10923,Rockland,Garnerville,garnerville
36,New york,NY,10924,Orange,Goshen,goshen
36,New york,NY,10925,Orange,Greenwood lake,greenwood lake
36,New york,NY,10926,Orange,Harriman,harriman
36,New york,NY,10927,Rockland,Haverstraw,haverstraw
36,New york,NY,10928,Orange,Highland falls,highland falls
36,New york,NY,10930,Orange,Highland mills,highland mills
36,New york,NY,10931,Rockland,Hillburn,hillburn
36,New york,NY,10940,Orange,Scotchtown,scotchtown
36,New york,NY,10941,Orange,Middletown,middletown
36,New york,NY,10950,Orange,Monroe,monroe
36,New york,NY,10952,Rockland,Monsey,monsey
36,New york,NY,10954,Rockland,Bardonia,bardonia
36,New york,NY,10956,Rockland,New city,new city
36,New york,NY,10958,Orange,New hampton,new hampton
36,New york,NY,10960,Rockland,Nyack,nyack
36,New york,NY,10962,Rockland,Orangeburg,orangeburg
36,New york,NY,10963,Orange,Otisville,otisville
36,New york,NY,10964,Rockland,Palisades,palisades
36,New york,NY,10965,Rockland,Pearl river,pearl river
36,New york,NY,10968,Rockland,Piermont,piermont
36,New york,NY,10969,Orange,Pine island,pine island
36,New york,NY,10970,Rockland,Pomona,pomona
36,New york,NY,10973,Orange,Slate hill,slate hill
36,New york,NY,10974,Rockland,Sterlington,sterlington
36,New york,NY,10975,Orange,Southfields,southfields
36,New york,NY,10976,Rockland,Sparkill,sparkill
36,New york,NY,10977,Rockland,Chestnut ridge,chestnut ridge
36,New york,NY,10980,Rockland,Stony point,stony point
36,New york,NY,10983,Rockland,Tappan,tappan
36,New york,NY,10984,Rockland,Thiells,thiells
36,New york,NY,10985,Orange,Thompson ridge,thompson ridge
36,New york,NY,10986,Rockland,Tomkins cove,tomkins cove
36,New york,NY,10987,Orange,Tuxedo park,tuxedo park
36,New york,NY,10989,Rockland,Valley cottage,valley cottage
36,New york,NY,10990,Orange,Warwick,warwick
36,New york,NY,10992,Orange,Washingtonville,washingtonville
36,New york,NY,10993,Rockland,West haverstraw,west haverstraw
36,New york,NY,10994,Rockland,West nyack,west nyack
36,New york,NY,10996,Orange,West point,west point
36,New york,NY,10998,Orange,Westtown,westtown
36,New york,NY,109HH,Orange,Zcta 109hh,zcta 109hh
36,New york,NY,109XX,Orange,Zcta 109xx,zcta 109xx
36,New york,NY,11001,Nassau,Floral park,floral park
36,New york,NY,11003,Nassau,Alden manor,alden manor
36,New york,NY,11004,Queens,Glen oaks,glen oaks
36,New york,NY,11005,Queens,Floral park,floral park
36,New york,NY,11010,Nassau,Franklin square,franklin square
36,New york,NY,11020,Nassau,Great neck,great neck
36,New york,NY,11021,Nassau,Great neck,great neck
36,New york,NY,11023,Nassau,Great neck,great neck
36,New york,NY,11024,Nassau,Kings point cont,kings point cont
36,New york,NY,11030,Nassau,Plandome,plandome
36,New york,NY,11040,Nassau,Hillside manor,hillside manor
36,New york,NY,11042,Nassau,New hyde park,new hyde park
36,New york,NY,11050,Nassau,Port washington,port washington
36,New york,NY,11096,Nassau,Zcta 11096,zcta 11096
36,New york,NY,110HH,Nassau,Zcta 110hh,zcta 110hh
36,New york,NY,11101,Queens,Astoria,astoria
36,New york,NY,11102,Queens,Astoria,astoria
36,New york,NY,11103,Queens,Astoria,astoria
36,New york,NY,11104,Queens,Sunnyside,sunnyside
36,New york,NY,11105,Queens,Astoria,astoria
36,New york,NY,11106,Queens,Astoria,astoria
36,New york,NY,111HH,Queens,Zcta 111hh,zcta 111hh
36,New york,NY,11201,Kings,Brooklyn,brooklyn
36,New york,NY,11203,Kings,Brooklyn,brooklyn
36,New york,NY,11204,Kings,Brooklyn,brooklyn
36,New york,NY,11205,Kings,Brooklyn,brooklyn
36,New york,NY,11206,Kings,Brooklyn,brooklyn
36,New york,NY,11207,Kings,Brooklyn,brooklyn
36,New york,NY,11208,Kings,Brooklyn,brooklyn
36,New york,NY,11209,Kings,Brooklyn,brooklyn
36,New york,NY,11210,Kings,Brooklyn,brooklyn
36,New york,NY,11211,Kings,Brooklyn,brooklyn
36,New york,NY,11212,Kings,Brooklyn,brooklyn
36,New york,NY,11213,Kings,Brooklyn,brooklyn
36,New york,NY,11214,Kings,Brooklyn,brooklyn
36,New york,NY,11215,Kings,Brooklyn,brooklyn
36,New york,NY,11216,Kings,Brooklyn,brooklyn
36,New york,NY,11217,Kings,Brooklyn,brooklyn
36,New york,NY,11218,Kings,Brooklyn,brooklyn
36,New york,NY,11219,Kings,Brooklyn,brooklyn
36,New york,NY,11220,Kings,Brooklyn,brooklyn
36,New york,NY,11221,Kings,Brooklyn,brooklyn
36,New york,NY,11222,Kings,Brooklyn,brooklyn
36,New york,NY,11223,Kings,Brooklyn,brooklyn
36,New york,NY,11224,Kings,Brooklyn,brooklyn
36,New york,NY,11225,Kings,Brooklyn,brooklyn
36,New york,NY,11226,Kings,Brooklyn,brooklyn
36,New york,NY,11228,Kings,Brooklyn,brooklyn
36,New york,NY,11229,Kings,Brooklyn,brooklyn
36,New york,NY,11230,Kings,Brooklyn,brooklyn
36,New york,NY,11231,Kings,Brooklyn,brooklyn
36,New york,NY,11232,Kings,Brooklyn,brooklyn
36,New york,NY,11233,Kings,Brooklyn,brooklyn
36,New york,NY,11234,Kings,Brooklyn,brooklyn
36,New york,NY,11235,Kings,Brooklyn,brooklyn
36,New york,NY,11236,Kings,Brooklyn,brooklyn
36,New york,NY,11237,Kings,Brooklyn,brooklyn
36,New york,NY,11238,Kings,Brooklyn,brooklyn
36,New york,NY,11239,Kings,Brooklyn,brooklyn
36,New york,NY,112HH,Kings,Zcta 112hh,zcta 112hh
36,New york,NY,11354,Queens,Flushing,flushing
36,New york,NY,11355,Queens,Flushing,flushing
36,New york,NY,11356,Queens,College point,college point
36,New york,NY,11357,Queens,Whitestone,whitestone
36,New york,NY,11358,Queens,Flushing,flushing
36,New york,NY,11360,Queens,Bayside,bayside
36,New york,NY,11361,Queens,Bayside,bayside
36,New york,NY,11362,Queens,Little neck,little neck
36,New york,NY,11363,Queens,Little neck,little neck
36,New york,NY,11364,Queens,Flushing,flushing
36,New york,NY,11365,Queens,Fresh meadows,fresh meadows
36,New york,NY,11366,Queens,Fresh meadows,fresh meadows
36,New york,NY,11367,Queens,Flushing,flushing
36,New york,NY,11368,Queens,Corona,corona
36,New york,NY,11369,Queens,East elmhurst,east elmhurst
36,New york,NY,11370,Queens,East elmhurst,east elmhurst
36,New york,NY,11371,Queens,Flushing,flushing
36,New york,NY,11372,Queens,Jackson heights,jackson heights
36,New york,NY,11373,Queens,Jackson heights,jackson heights
36,New york,NY,11374,Queens,Rego park,rego park
36,New york,NY,11375,Queens,Forest hills,forest hills
36,New york,NY,11377,Queens,Woodside,woodside
36,New york,NY,11378,Queens,Maspeth,maspeth
36,New york,NY,11379,Queens,Middle village,middle village
36,New york,NY,11385,Queens,Ridgewood,ridgewood
36,New york,NY,113HH,Queens,Zcta 113hh,zcta 113hh
36,New york,NY,11411,Queens,Cambria heights,cambria heights
36,New york,NY,11412,Queens,Kew gardens,kew gardens
36,New york,NY,11413,Queens,Springfield gard,springfield gard
36,New york,NY,11414,Queens,Kew gardens,kew gardens
36,New york,NY,11415,Queens,Kew gardens,kew gardens
36,New york,NY,11416,Queens,Ozone park,ozone park
36,New york,NY,11417,Queens,Ozone park,ozone park
36,New york,NY,11418,Queens,Richmond hill,richmond hill
36,New york,NY,11419,Queens,S richmond hill,s richmond hill
36,New york,NY,11420,Queens,S ozone park,s ozone park
36,New york,NY,11421,Queens,Woodhaven,woodhaven
36,New york,NY,11422,Queens,Rosedale,rosedale
36,New york,NY,11423,Queens,Hollis,hollis
36,New york,NY,11426,Queens,Bellerose,bellerose
36,New york,NY,11427,Queens,Queens village,queens village
36,New york,NY,11428,Queens,Queens village,queens village
36,New york,NY,11429,Queens,Queens village,queens village
36,New york,NY,11430,Queens,Jamaica,jamaica
36,New york,NY,11432,Queens,Jamaica,jamaica
36,New york,NY,11433,Queens,Jamaica,jamaica
36,New york,NY,11434,Queens,Jamaica,jamaica
36,New york,NY,11435,Queens,Jamaica,jamaica
36,New york,NY,11436,Queens,Jamaica,jamaica
36,New york,NY,114HH,Nassau,Zcta 114hh,zcta 114hh
36,New york,NY,11501,Nassau,Mineola,mineola
36,New york,NY,11507,Nassau,Albertson,albertson
36,New york,NY,11509,Nassau,Atlantic beach,atlantic beach
36,New york,NY,11510,Nassau,Baldwin,baldwin
36,New york,NY,11514,Nassau,Carle place,carle place
36,New york,NY,11516,Nassau,Cedarhurst,cedarhurst
36,New york,NY,11518,Nassau,East rockaway,east rockaway
36,New york,NY,11520,Nassau,Freeport,freeport
36,New york,NY,11530,Nassau,Garden city,garden city
36,New york,NY,11542,Nassau,Glen cove,glen cove
36,New york,NY,11545,Nassau,Glen head,glen head
36,New york,NY,11547,Nassau,Glenwood landing,glenwood landing
36,New york,NY,11548,Nassau,Greenvale,greenvale
36,New york,NY,11550,Nassau,Hempstead,hempstead
36,New york,NY,11552,Nassau,West hempstead,west hempstead
36,New york,NY,11553,Nassau,Uniondale,uniondale
36,New york,NY,11554,Nassau,East meadow,east meadow
36,New york,NY,11557,Nassau,Hewlett,hewlett
36,New york,NY,11558,Nassau,Island park,island park
36,New york,NY,11559,Nassau,Lawrence,lawrence
36,New york,NY,11560,Nassau,Locust valley,locust valley
36,New york,NY,11561,Nassau,Long beach,long beach
36,New york,NY,11563,Nassau,Lynbrook,lynbrook
36,New york,NY,11565,Nassau,Malverne,malverne
36,New york,NY,11566,Nassau,North merrick,north merrick
36,New york,NY,11568,Nassau,Old westbury,old westbury
36,New york,NY,11569,Nassau,Point lookout,point lookout
36,New york,NY,11570,Nassau,Rockville centre,rockville centre
36,New york,NY,11572,Nassau,Oceanside,oceanside
36,New york,NY,11575,Nassau,Roosevelt,roosevelt
36,New york,NY,11576,Nassau,Roslyn,roslyn
36,New york,NY,11577,Nassau,Roslyn heights,roslyn heights
36,New york,NY,11579,Nassau,Sea cliff,sea cliff
36,New york,NY,11580,Nassau,Valley stream,valley stream
36,New york,NY,11581,Nassau,North woodmere,north woodmere
36,New york,NY,11590,Nassau,Westbury,westbury
36,New york,NY,11596,Nassau,Williston park,williston park
36,New york,NY,11598,Nassau,Woodmere,woodmere
36,New york,NY,115HH,Nassau,Zcta 115hh,zcta 115hh
36,New york,NY,11691,Queens,Far rockaway,far rockaway
36,New york,NY,11692,Queens,Far rockaway,far rockaway
36,New york,NY,11693,Queens,Far rockaway,far rockaway
36,New york,NY,11694,Queens,Far rockaway,far rockaway
36,New york,NY,11697,Queens,Far rockaway,far rockaway
36,New york,NY,116HH,Queens,Zcta 116hh,zcta 116hh
36,New york,NY,11701,Suffolk,Amityville,amityville
36,New york,NY,11702,Suffolk,Oak beach,oak beach
36,New york,NY,11703,Suffolk,North babylon,north babylon
36,New york,NY,11704,Suffolk,West babylon,west babylon
36,New york,NY,11705,Suffolk,Bayport,bayport
36,New york,NY,11706,Suffolk,Kismet,kismet
36,New york,NY,11709,Nassau,Bayville,bayville
36,New york,NY,11710,Nassau,North bellmore,north bellmore
36,New york,NY,11713,Suffolk,Bellport,bellport
36,New york,NY,11714,Nassau,Bethpage,bethpage
36,New york,NY,11715,Suffolk,Blue point,blue point
36,New york,NY,11716,Suffolk,Bohemia,bohemia
36,New york,NY,11717,Suffolk,West brentwood,west brentwood
36,New york,NY,11718,Suffolk,Brightwaters,brightwaters
36,New york,NY,11719,Suffolk,Brookhaven,brookhaven
36,New york,NY,11720,Suffolk,Centereach,centereach
36,New york,NY,11721,Suffolk,Centerport,centerport
36,New york,NY,11722,Suffolk,Central islip,central islip
36,New york,NY,11724,Suffolk,Cold spring harb,cold spring harb
36,New york,NY,11725,Suffolk,Commack,commack
36,New york,NY,11726,Suffolk,Copiague,copiague
36,New york,NY,11727,Suffolk,Coram,coram
36,New york,NY,11729,Suffolk,Deer park,deer park
36,New york,NY,11730,Suffolk,East islip,east islip
36,New york,NY,11731,Suffolk,Elwood,elwood
36,New york,NY,11732,Nassau,East norwich,east norwich
36,New york,NY,11733,Suffolk,Setauket,setauket
36,New york,NY,11735,Nassau,South farmingdal,south farmingdal
36,New york,NY,11738,Suffolk,Farmingville,farmingville
36,New york,NY,11740,Suffolk,Greenlawn,greenlawn
36,New york,NY,11741,Suffolk,Holbrook,holbrook
36,New york,NY,11742,Suffolk,Holtsville,holtsville
36,New york,NY,11743,Suffolk,Halesite,halesite
36,New york,NY,11746,Suffolk,Dix hills,dix hills
36,New york,NY,11747,Suffolk,Melville,melville
36,New york,NY,11751,Suffolk,Islip,islip
36,New york,NY,11752,Suffolk,Islip terrace,islip terrace
36,New york,NY,11753,Nassau,Jericho,jericho
36,New york,NY,11754,Suffolk,Kings park,kings park
36,New york,NY,11755,Suffolk,Lake grove,lake grove
36,New york,NY,11756,Nassau,Levittown,levittown
36,New york,NY,11757,Suffolk,Lindenhurst,lindenhurst
36,New york,NY,11758,Nassau,North massapequa,north massapequa
36,New york,NY,11762,Nassau,Massapequa park,massapequa park
36,New york,NY,11763,Suffolk,Medford,medford
36,New york,NY,11764,Suffolk,Miller place,miller place
36,New york,NY,11765,Nassau,Mill neck,mill neck
36,New york,NY,11766,Suffolk,Mount sinai,mount sinai
36,New york,NY,11767,Suffolk,Nesconset,nesconset
36,New york,NY,11768,Suffolk,Northport,northport
36,New york,NY,11769,Suffolk,Oakdale,oakdale
36,New york,NY,11770,Suffolk,Ocean beach,ocean beach
36,New york,NY,11771,Nassau,Oyster bay,oyster bay
36,New york,NY,11772,Suffolk,Davis park,davis park
36,New york,NY,11776,Suffolk,Port jefferson s,port jefferson s
36,New york,NY,11777,Suffolk,Port jefferson,port jefferson
36,New york,NY,11778,Suffolk,Rocky point,rocky point
36,New york,NY,11779,Suffolk,Lake ronkonkoma,lake ronkonkoma
36,New york,NY,11780,Suffolk,Saint james,saint james
36,New york,NY,11782,Suffolk,Cherry grove,cherry grove
36,New york,NY,11783,Nassau,Seaford,seaford
36,New york,NY,11784,Suffolk,Selden,selden
36,New york,NY,11786,Suffolk,Shoreham,shoreham
36,New york,NY,11787,Suffolk,Smithtown,smithtown
36,New york,NY,11788,Suffolk,Hauppauge,hauppauge
36,New york,NY,11789,Suffolk,Sound beach,sound beach
36,New york,NY,11790,Suffolk,Stony brook,stony brook
36,New york,NY,11791,Nassau,Syosset,syosset
36,New york,NY,11792,Suffolk,Wading river,wading river
36,New york,NY,11793,Nassau,Wantagh,wantagh
36,New york,NY,11795,Suffolk,West islip,west islip
36,New york,NY,11796,Suffolk,West sayville,west sayville
36,New york,NY,11797,Nassau,Woodbury,woodbury
36,New york,NY,11798,Suffolk,Wheatley heights,wheatley heights
36,New york,NY,117HH,Nassau,Zcta 117hh,zcta 117hh
36,New york,NY,11801,Nassau,Hicksville,hicksville
36,New york,NY,11803,Nassau,Plainview,plainview
36,New york,NY,11804,Nassau,Old bethpage,old bethpage
36,New york,NY,11901,Suffolk,Riverhead,riverhead
36,New york,NY,11930,Suffolk,Amagansett,amagansett
36,New york,NY,11932,Suffolk,Bridgehampton,bridgehampton
36,New york,NY,11933,Suffolk,Calverton,calverton
36,New york,NY,11934,Suffolk,Center moriches,center moriches
36,New york,NY,11935,Suffolk,Cutchogue,cutchogue
36,New york,NY,11937,Suffolk,East hampton,east hampton
36,New york,NY,11939,Suffolk,East marion,east marion
36,New york,NY,11940,Suffolk,East moriches,east moriches
36,New york,NY,11941,Suffolk,Eastport,eastport
36,New york,NY,11942,Suffolk,East quogue,east quogue
36,New york,NY,11944,Suffolk,Greenport,greenport
36,New york,NY,11946,Suffolk,Hampton bays,hampton bays
36,New york,NY,11947,Suffolk,Jamesport,jamesport
36,New york,NY,11948,Suffolk,Laurel,laurel
36,New york,NY,11949,Suffolk,Manorville,manorville
36,New york,NY,11950,Suffolk,Mastic,mastic
36,New york,NY,11951,Suffolk,Mastic beach,mastic beach
36,New york,NY,11952,Suffolk,Mattituck,mattituck
36,New york,NY,11953,Suffolk,Middle island,middle island
36,New york,NY,11954,Suffolk,Montauk,montauk
36,New york,NY,11955,Suffolk,Moriches,moriches
36,New york,NY,11956,Suffolk,New suffolk,new suffolk
36,New york,NY,11957,Suffolk,Orient,orient
36,New york,NY,11958,Suffolk,Peconic,peconic
36,New york,NY,11959,Suffolk,Quogue,quogue
36,New york,NY,11960,Suffolk,Remsenburg,remsenburg
36,New york,NY,11961,Suffolk,Ridge,ridge
36,New york,NY,11962,Suffolk,Sagaponack,sagaponack
36,New york,NY,11963,Suffolk,Sag harbor,sag harbor
36,New york,NY,11964,Suffolk,Shelter island,shelter island
36,New york,NY,11965,Suffolk,Shelter island h,shelter island h
36,New york,NY,11967,Suffolk,Shirley,shirley
36,New york,NY,11968,Suffolk,Southampton,southampton
36,New york,NY,11970,Suffolk,South jamesport,south jamesport
36,New york,NY,11971,Suffolk,Southold,southold
36,New york,NY,11972,Suffolk,Speonk,speonk
36,New york,NY,11975,Suffolk,Wainscott,wainscott
36,New york,NY,11976,Suffolk,Water mill,water mill
36,New york,NY,11977,Suffolk,Westhampton,westhampton
36,New york,NY,11978,Suffolk,Westhampton beac,westhampton beac
36,New york,NY,11980,Suffolk,Yaphank,yaphank
36,New york,NY,119HH,Suffolk,Zcta 119hh,zcta 119hh
36,New york,NY,12008,Schenectady,Alplaus,alplaus
36,New york,NY,12009,Albany,Altamont,altamont
36,New york,NY,12010,Montgomery,West charlton,west charlton
36,New york,NY,12015,Greene,Athens,athens
36,New york,NY,12017,Columbia,Austerlitz,austerlitz
36,New york,NY,12018,Rensselaer,Averill park,averill park
36,New york,NY,12019,Saratoga,Ballston lake,ballston lake
36,New york,NY,12020,Saratoga,Ballston spa,ballston spa
36,New york,NY,12022,Rensselaer,Berlin,berlin
36,New york,NY,12023,Albany,Berne,berne
36,New york,NY,12025,Fulton,Broadalbin,broadalbin
36,New york,NY,12027,Saratoga,Burnt hills,burnt hills
36,New york,NY,12028,Rensselaer,Buskirk,buskirk
36,New york,NY,12029,Columbia,Canaan,canaan
36,New york,NY,12031,Schoharie,Carlisle,carlisle
36,New york,NY,12032,Fulton,Caroga lake,caroga lake
36,New york,NY,12033,Rensselaer,Castleton on hud,castleton on hud
36,New york,NY,12035,Schoharie,Central bridge,central bridge
36,New york,NY,12036,Schoharie,Charlotteville,charlotteville
36,New york,NY,12037,Columbia,Chatham,chatham
36,New york,NY,12041,Albany,Clarksville,clarksville
36,New york,NY,12042,Greene,Climax,climax
36,New york,NY,12043,Schoharie,Cobleskill,cobleskill
36,New york,NY,12045,Albany,Coeymans,coeymans
36,New york,NY,12046,Albany,Coeymans hollow,coeymans hollow
36,New york,NY,12047,Albany,Cohoes,cohoes
36,New york,NY,12051,Greene,Coxsackie,coxsackie
36,New york,NY,12052,Rensselaer,Cropseyville,cropseyville
36,New york,NY,12053,Schenectady,Delanson,delanson
36,New york,NY,12054,Albany,Delmar,delmar
36,New york,NY,12056,Schenectady,Duanesburg,duanesburg
36,New york,NY,12057,Washington,White creek,white creek
36,New york,NY,12058,Greene,Earlton,earlton
36,New york,NY,12059,Albany,East berne,east berne
36,New york,NY,12060,Columbia,East chatham,east chatham
36,New york,NY,12061,Rensselaer,East greenbush,east greenbush
36,New york,NY,12062,Rensselaer,East nassau,east nassau
36,New york,NY,12063,Rensselaer,East schodack,east schodack
36,New york,NY,12064,Otsego,East worcester,east worcester
36,New york,NY,12065,Saratoga,Clifton park,clifton park
36,New york,NY,12066,Schoharie,Esperance,esperance
36,New york,NY,12067,Albany,Feura bush,feura bush
36,New york,NY,12068,Montgomery,Fonda,fonda
36,New york,NY,12070,Montgomery,Fort johnson,fort johnson
36,New york,NY,12071,Schoharie,Fultonham,fultonham
36,New york,NY,12072,Montgomery,Fultonville,fultonville
36,New york,NY,12074,Saratoga,Galway,galway
36,New york,NY,12075,Columbia,Ghent,ghent
36,New york,NY,12076,Schoharie,Gilboa,gilboa
36,New york,NY,12077,Albany,Glenmont,glenmont
36,New york,NY,12078,Fulton,Gloversville,gloversville
36,New york,NY,12083,Greene,Greenville,greenville
36,New york,NY,12084,Albany,Guilderland,guilderland
36,New york,NY,12086,Montgomery,Hagaman,hagaman
36,New york,NY,12087,Greene,Hannacroix,hannacroix
36,New york,NY,12090,Rensselaer,Hoosick falls,hoosick falls
36,New york,NY,12092,Schoharie,Howes cave,howes cave
36,New york,NY,12093,Schoharie,Jefferson,jefferson
36,New york,NY,12094,Rensselaer,Johnsonville,johnsonville
36,New york,NY,12095,Fulton,Johnstown,johnstown
36,New york,NY,120HH,Albany,Zcta 120hh,zcta 120hh
36,New york,NY,12106,Columbia,Kinderhook,kinderhook
36,New york,NY,12108,Hamilton,Lake pleasant,lake pleasant
36,New york,NY,12110,Albany,Latham,latham
36,New york,NY,12115,Columbia,Malden bridge,malden bridge
36,New york,NY,12116,Otsego,Maryland,maryland
36,New york,NY,12117,Fulton,Mayfield,mayfield
36,New york,NY,12118,Saratoga,Mechanicville,mechanicville
36,New york,NY,12120,Albany,Medusa,medusa
36,New york,NY,12121,Rensselaer,Melrose,melrose
36,New york,NY,12122,Schoharie,Middleburgh,middleburgh
36,New york,NY,12123,Rensselaer,Nassau,nassau
36,New york,NY,12125,Columbia,New lebanon,new lebanon
36,New york,NY,12130,Columbia,Niverville,niverville
36,New york,NY,12131,Schoharie,North blenheim,north blenheim
36,New york,NY,12134,Fulton,Edinburg,edinburg
36,New york,NY,12136,Columbia,Old chatham,old chatham
36,New york,NY,12137,Schenectady,Pattersonville,pattersonville
36,New york,NY,12138,Rensselaer,Taconic lake,taconic lake
36,New york,NY,12139,Hamilton,Piseco,piseco
36,New york,NY,12140,Rensselaer,Poestenkill,poestenkill
36,New york,NY,12143,Albany,Ravena,ravena
36,New york,NY,12144,Rensselaer,Rensselaer,rensselaer
36,New york,NY,12147,Albany,Rensselaerville,rensselaerville
36,New york,NY,12148,Saratoga,Rexford,rexford
36,New york,NY,12149,Schoharie,Richmondville,richmondville
36,New york,NY,12150,Schenectady,Rotterdam juncti,rotterdam juncti
36,New york,NY,12151,Saratoga,Round lake,round lake
36,New york,NY,12153,Rensselaer,Sand lake,sand lake
36,New york,NY,12154,Rensselaer,Schaghticoke,schaghticoke
36,New york,NY,12155,Otsego,Schenevus,schenevus
36,New york,NY,12156,Rensselaer,Schodack landing,schodack landing
36,New york,NY,12157,Schoharie,Schoharie,schoharie
36,New york,NY,12158,Albany,Selkirk,selkirk
36,New york,NY,12159,Albany,Slingerlands,slingerlands
36,New york,NY,12160,Schoharie,Sloansville,sloansville
36,New york,NY,12164,Hamilton,Speculator,speculator
36,New york,NY,12165,Columbia,Spencertown,spencertown
36,New york,NY,12166,Montgomery,Sprakers,sprakers
36,New york,NY,12167,Delaware,Stamford,stamford
36,New york,NY,12168,Rensselaer,Stephentown,stephentown
36,New york,NY,12169,Rensselaer,Stephentown,stephentown
36,New york,NY,12170,Saratoga,Stillwater,stillwater
36,New york,NY,12173,Columbia,Stuyvesant,stuyvesant
36,New york,NY,12175,Schoharie,Summit,summit
36,New york,NY,12176,Greene,Surprise,surprise
36,New york,NY,12180,Rensselaer,Troy,troy
36,New york,NY,12182,Rensselaer,Troy,troy
36,New york,NY,12183,Albany,Green island,green island
36,New york,NY,12184,Columbia,Valatie,valatie
36,New york,NY,12185,Rensselaer,Valley falls,valley falls
36,New york,NY,12186,Albany,Voorheesville,voorheesville
36,New york,NY,12187,Schoharie,Warnerville,warnerville
36,New york,NY,12188,Saratoga,Waterford,waterford
36,New york,NY,12189,Albany,Watervliet,watervliet
36,New york,NY,12190,Hamilton,Wells,wells
36,New york,NY,12192,Greene,West coxsackie,west coxsackie
36,New york,NY,12193,Albany,Westerlo,westerlo
36,New york,NY,12194,Schoharie,West fulton,west fulton
36,New york,NY,12196,Rensselaer,West sand lake,west sand lake
36,New york,NY,12197,Otsego,Worcester,worcester
36,New york,NY,12198,Rensselaer,Wynantskill,wynantskill
36,New york,NY,121HH,Albany,Zcta 121hh,zcta 121hh
36,New york,NY,121XX,Hamilton,Zcta 121xx,zcta 121xx
36,New york,NY,12202,Albany,Albany,albany
36,New york,NY,12203,Albany,Mc kownville,mc kownville
36,New york,NY,12204,Albany,Albany,albany
36,New york,NY,12205,Albany,Roessleville,roessleville
36,New york,NY,12206,Albany,Albany,albany
36,New york,NY,12207,Albany,Albany,albany
36,New york,NY,12208,Albany,Albany,albany
36,New york,NY,12209,Albany,Albany,albany
36,New york,NY,12210,Albany,Albany,albany
36,New york,NY,12211,Albany,Loudonville,loudonville
36,New york,NY,122HH,Albany,Zcta 122hh,zcta 122hh
36,New york,NY,12302,Schenectady,Mayfair,mayfair
36,New york,NY,12303,Schenectady,Rotterdam,rotterdam
36,New york,NY,12304,Schenectady,Schenectady,schenectady
36,New york,NY,12305,Schenectady,Schenectady,schenectady
36,New york,NY,12306,Schenectady,Schenectady,schenectady
36,New york,NY,12307,Schenectady,Schenectady,schenectady
36,New york,NY,12308,Schenectady,Schenectady,schenectady
36,New york,NY,12309,Schenectady,Niskayuna,niskayuna
36,New york,NY,123HH,Schenectady,Zcta 123hh,zcta 123hh
36,New york,NY,12401,Ulster,Eddyville,eddyville
36,New york,NY,12404,Ulster,Accord,accord
36,New york,NY,12405,Greene,Acra,acra
36,New york,NY,12406,Delaware,Arkville,arkville
36,New york,NY,12407,Greene,Ashland,ashland
36,New york,NY,12409,Ulster,Shady,shady
36,New york,NY,12410,Ulster,Oliverea,oliverea
36,New york,NY,12411,Ulster,Bloomington,bloomington
36,New york,NY,12412,Ulster,Boiceville,boiceville
36,New york,NY,12413,Greene,Cairo,cairo
36,New york,NY,12414,Greene,Catskill,catskill
36,New york,NY,12416,Ulster,Chichester,chichester
36,New york,NY,12418,Greene,Cornwallville,cornwallville
36,New york,NY,12419,Ulster,Cottekill,cottekill
36,New york,NY,12420,Ulster,Cragsmoor,cragsmoor
36,New york,NY,12421,Delaware,Denver,denver
36,New york,NY,12422,Greene,Durham,durham
36,New york,NY,12423,Greene,East durham,east durham
36,New york,NY,12424,Greene,East jewett,east jewett
36,New york,NY,12427,Greene,Elka park,elka park
36,New york,NY,12428,Ulster,Ellenville,ellenville
36,New york,NY,12429,Ulster,Esopus,esopus
36,New york,NY,12430,Delaware,Halcott center,halcott center
36,New york,NY,12431,Greene,Freehold,freehold
36,New york,NY,12433,Ulster,Glenford,glenford
36,New york,NY,12434,Delaware,Grand gorge,grand gorge
36,New york,NY,12435,Ulster,Greenfield park,greenfield park
36,New york,NY,12439,Greene,East windham,east windham
36,New york,NY,12440,Ulster,High falls,high falls
36,New york,NY,12442,Greene,Hunter,hunter
36,New york,NY,12443,Ulster,Hurley,hurley
36,New york,NY,12444,Greene,Jewett,jewett
36,New york,NY,12446,Ulster,Kerhonkson,kerhonkson
36,New york,NY,12448,Ulster,Lake hill,lake hill
36,New york,NY,12449,Ulster,Lake katrine,lake katrine
36,New york,NY,12450,Greene,Lanesville,lanesville
36,New york,NY,12451,Greene,Leeds,leeds
36,New york,NY,12454,Greene,Maplecrest,maplecrest
36,New york,NY,12455,Delaware,Kelly corners,kelly corners
36,New york,NY,12456,Ulster,Mount marion,mount marion
36,New york,NY,12457,Ulster,Mount tremper,mount tremper
36,New york,NY,12458,Ulster,Napanoch,napanoch
36,New york,NY,12459,Delaware,New kingston,new kingston
36,New york,NY,12460,Greene,Oak hill,oak hill
36,New york,NY,12461,Ulster,Krumville,krumville
36,New york,NY,12463,Greene,Palenville,palenville
36,New york,NY,12464,Ulster,Phoenicia,phoenicia
36,New york,NY,12466,Ulster,Port ewen,port ewen
36,New york,NY,12468,Greene,Prattsville,prattsville
36,New york,NY,12469,Albany,Preston hollow,preston hollow
36,New york,NY,12470,Greene,Purling,purling
36,New york,NY,12471,Ulster,Rifton,rifton
36,New york,NY,12472,Ulster,Rosendale,rosendale
36,New york,NY,12473,Greene,Round top,round top
36,New york,NY,12474,Delaware,Roxbury,roxbury
36,New york,NY,12477,Ulster,Saugerties,saugerties
36,New york,NY,12480,Ulster,Shandaken,shandaken
36,New york,NY,12481,Ulster,Shokan,shokan
36,New york,NY,12482,Greene,South cairo,south cairo
36,New york,NY,12484,Ulster,Stone ridge,stone ridge
36,New york,NY,12485,Greene,Tannersville,tannersville
36,New york,NY,12486,Ulster,Tillson,tillson
36,New york,NY,12487,Ulster,Ulster park,ulster park
36,New york,NY,12489,Ulster,Wawarsing,wawarsing
36,New york,NY,12491,Ulster,West hurley,west hurley
36,New york,NY,12492,Greene,West kill,west kill
36,New york,NY,12493,Ulster,West park,west park
36,New york,NY,12494,Ulster,West shokan,west shokan
36,New york,NY,12495,Ulster,Willow,willow
36,New york,NY,12496,Greene,Windham,windham
36,New york,NY,12498,Ulster,Woodstock,woodstock
36,New york,NY,124HH,Delaware,Zcta 124hh,zcta 124hh
36,New york,NY,12501,Dutchess,Amenia,amenia
36,New york,NY,12502,Columbia,Ancram,ancram
36,New york,NY,12503,Columbia,Ancramdale,ancramdale
36,New york,NY,12507,Dutchess,Barrytown,barrytown
36,New york,NY,12508,Dutchess,Beacon,beacon
36,New york,NY,12513,Columbia,Claverack,claverack
36,New york,NY,12514,Dutchess,Clinton corners,clinton corners
36,New york,NY,12515,Ulster,Clintondale,clintondale
36,New york,NY,12516,Columbia,Copake,copake
36,New york,NY,12517,Columbia,Copake falls,copake falls
36,New york,NY,12518,Orange,Cornwall,cornwall
36,New york,NY,12520,Orange,Cornwall on huds,cornwall on huds
36,New york,NY,12521,Columbia,Craryville,craryville
36,New york,NY,12522,Dutchess,Dover plains,dover plains
36,New york,NY,12523,Columbia,Elizaville,elizaville
36,New york,NY,12524,Dutchess,Fishkill,fishkill
36,New york,NY,12525,Ulster,Gardiner,gardiner
36,New york,NY,12526,Columbia,Germantown,germantown
36,New york,NY,12528,Ulster,Highland,highland
36,New york,NY,12529,Columbia,Hillsdale,hillsdale
36,New york,NY,12531,Dutchess,Holmes,holmes
36,New york,NY,12533,Dutchess,Hopewell junctio,hopewell junctio
36,New york,NY,12534,Columbia,Hudson,hudson
36,New york,NY,12538,Dutchess,Hyde park,hyde park
36,New york,NY,12540,Dutchess,Lagrangeville,lagrangeville
36,New york,NY,12542,Ulster,Marlboro,marlboro
36,New york,NY,12543,Orange,Maybrook,maybrook
36,New york,NY,12545,Dutchess,Millbrook,millbrook
36,New york,NY,12546,Dutchess,Millerton,millerton
36,New york,NY,12547,Ulster,Milton,milton
36,New york,NY,12548,Ulster,Modena,modena
36,New york,NY,12549,Orange,Montgomery,montgomery
36,New york,NY,12550,Orange,Middle hope,middle hope
36,New york,NY,12553,Orange,New windsor,new windsor
36,New york,NY,12561,Ulster,Mohonk lake,mohonk lake
36,New york,NY,12563,Putnam,Patterson,patterson
36,New york,NY,12564,Dutchess,Pawling,pawling
36,New york,NY,12565,Columbia,Philmont,philmont
36,New york,NY,12566,Ulster,Pine bush,pine bush
36,New york,NY,12567,Dutchess,Pine plains,pine plains
36,New york,NY,12569,Dutchess,Pleasant valley,pleasant valley
36,New york,NY,12570,Dutchess,Poughquag,poughquag
36,New york,NY,12571,Dutchess,Red hook,red hook
36,New york,NY,12572,Dutchess,Rhinebeck,rhinebeck
36,New york,NY,12575,Orange,Rock tavern,rock tavern
36,New york,NY,12577,Orange,Salisbury mills,salisbury mills
36,New york,NY,12578,Dutchess,Salt point,salt point
36,New york,NY,12580,Dutchess,Staatsburg,staatsburg
36,New york,NY,12581,Dutchess,Stanfordville,stanfordville
36,New york,NY,12582,Dutchess,Stormville,stormville
36,New york,NY,12583,Dutchess,Tivoli,tivoli
36,New york,NY,12585,Dutchess,Verbank,verbank
36,New york,NY,12586,Orange,Walden,walden
36,New york,NY,12589,Ulster,Wallkill,wallkill
36,New york,NY,12590,Dutchess,New hamburg,new hamburg
36,New york,NY,12592,Dutchess,Wassaic,wassaic
36,New york,NY,12594,Dutchess,Wingdale,wingdale
36,New york,NY,125HH,Columbia,Zcta 125hh,zcta 125hh
36,New york,NY,125XX,Orange,Zcta 125xx,zcta 125xx
36,New york,NY,12601,Dutchess,South road,south road
36,New york,NY,12603,Dutchess,Arlington,arlington
36,New york,NY,126HH,Dutchess,Zcta 126hh,zcta 126hh
36,New york,NY,12701,Sullivan,Monticello,monticello
36,New york,NY,12719,Sullivan,Barryville,barryville
36,New york,NY,12720,Sullivan,Bethel,bethel
36,New york,NY,12721,Sullivan,Bloomingburg,bloomingburg
36,New york,NY,12723,Sullivan,Callicoon,callicoon
36,New york,NY,12724,Sullivan,Callicoon center,callicoon center
36,New york,NY,12725,Ulster,Claryville,claryville
36,New york,NY,12726,Sullivan,Fosterdale,fosterdale
36,New york,NY,12727,Sullivan,Cochecton center,cochecton center
36,New york,NY,12729,Orange,Cuddebackville,cuddebackville
36,New york,NY,12732,Sullivan,Eldred,eldred
36,New york,NY,12733,Sullivan,Fallsburg,fallsburg
36,New york,NY,12734,Sullivan,Grossinger,grossinger
36,New york,NY,12736,Sullivan,Fremont center,fremont center
36,New york,NY,12737,Sullivan,Glen spey,glen spey
36,New york,NY,12738,Sullivan,Glen wild,glen wild
36,New york,NY,12739,Orange,Godeffroy,godeffroy
36,New york,NY,12740,Sullivan,Grahamsville,grahamsville
36,New york,NY,12741,Sullivan,Mileses,mileses
36,New york,NY,12742,Sullivan,Harris,harris
36,New york,NY,12743,Sullivan,Highland lake,highland lake
36,New york,NY,12746,Orange,Huguenot,huguenot
36,New york,NY,12747,Sullivan,Hurleyville,hurleyville
36,New york,NY,12748,Sullivan,Jeffersonville,jeffersonville
36,New york,NY,12749,Sullivan,Kauneonga lake,kauneonga lake
36,New york,NY,12751,Sullivan,Kiamesha lake,kiamesha lake
36,New york,NY,12752,Sullivan,Lake huntington,lake huntington
36,New york,NY,12754,Sullivan,Liberty,liberty
36,New york,NY,12758,Sullivan,Livingston manor,livingston manor
36,New york,NY,12759,Sullivan,Loch sheldrake,loch sheldrake
36,New york,NY,12760,Delaware,Long eddy,long eddy
36,New york,NY,12762,Sullivan,Mongaup valley,mongaup valley
36,New york,NY,12763,Sullivan,Mountain dale,mountain dale
36,New york,NY,12764,Sullivan,Narrowsburg,narrowsburg
36,New york,NY,12765,Sullivan,Neversink,neversink
36,New york,NY,12766,Sullivan,North branch,north branch
36,New york,NY,12768,Sullivan,Parksville,parksville
36,New york,NY,12770,Sullivan,Pond eddy,pond eddy
36,New york,NY,12771,Orange,Port jervis,port jervis
36,New york,NY,12775,Sullivan,Rock hill,rock hill
36,New york,NY,12776,Sullivan,Cook falls,cook falls
36,New york,NY,12777,Sullivan,Forestburgh,forestburgh
36,New york,NY,12778,Sullivan,Smallwood,smallwood
36,New york,NY,12779,Sullivan,South fallsburg,south fallsburg
36,New york,NY,12780,Orange,Sparrowbush,sparrowbush
36,New york,NY,12783,Sullivan,Swan lake,swan lake
36,New york,NY,12784,Sullivan,Thompsonville,thompsonville
36,New york,NY,12785,Sullivan,Westbrookville,westbrookville
36,New york,NY,12786,Sullivan,White lake,white lake
36,New york,NY,12787,Sullivan,White sulphur sp,white sulphur sp
36,New york,NY,12788,Sullivan,Woodbourne,woodbourne
36,New york,NY,12789,Sullivan,Woodridge,woodridge
36,New york,NY,12790,Sullivan,Wurtsboro,wurtsboro
36,New york,NY,12791,Sullivan,Youngsville,youngsville
36,New york,NY,12792,Sullivan,Yulan,yulan
36,New york,NY,127HH,Delaware,Zcta 127hh,zcta 127hh
36,New york,NY,12801,Warren,Queensbury,queensbury
36,New york,NY,12803,Saratoga,South glens fall,south glens fall
36,New york,NY,12804,Warren,Queensbury,queensbury
36,New york,NY,12808,Warren,Adirondack,adirondack
36,New york,NY,12809,Washington,Argyle,argyle
36,New york,NY,12810,Warren,Athol,athol
36,New york,NY,12812,Hamilton,Blue mountain la,blue mountain la
36,New york,NY,12814,Warren,Bolton landing,bolton landing
36,New york,NY,12815,Warren,Brant lake,brant lake
36,New york,NY,12816,Washington,Cambridge,cambridge
36,New york,NY,12817,Warren,Chestertown,chestertown
36,New york,NY,12819,Washington,Clemons,clemons
36,New york,NY,12821,Washington,Comstock,comstock
36,New york,NY,12822,Saratoga,Corinth,corinth
36,New york,NY,12823,Washington,Cossayuna,cossayuna
36,New york,NY,12824,Warren,Diamond point,diamond point
36,New york,NY,12827,Washington,Fort ann,fort ann
36,New york,NY,12828,Washington,Fort edward,fort edward
36,New york,NY,12831,Saratoga,Gansevoort,gansevoort
36,New york,NY,12832,Washington,Granville,granville
36,New york,NY,12833,Saratoga,Greenfield cente,greenfield cente
36,New york,NY,12834,Washington,Thomson,thomson
36,New york,NY,12835,Saratoga,Hadley,hadley
36,New york,NY,12836,Warren,Hague,hague
36,New york,NY,12837,Washington,Hampton,hampton
36,New york,NY,12838,Washington,Hartford,hartford
36,New york,NY,12839,Washington,Hudson falls,hudson falls
36,New york,NY,12841,Washington,Huletts landing,huletts landing
36,New york,NY,12842,Hamilton,Indian lake,indian lake
36,New york,NY,12843,Warren,Johnsburg,johnsburg
36,New york,NY,12844,Washington,Pilot knob,pilot knob
36,New york,NY,12845,Warren,Lake george,lake george
36,New york,NY,12846,Warren,Lake luzerne,lake luzerne
36,New york,NY,12847,Hamilton,Long lake,long lake
36,New york,NY,12849,Washington,Middle granville,middle granville
36,New york,NY,12850,Saratoga,Middle grove,middle grove
36,New york,NY,12851,Essex,Minerva,minerva
36,New york,NY,12852,Essex,Newcomb,newcomb
36,New york,NY,12853,Warren,North creek,north creek
36,New york,NY,12855,Essex,North hudson,north hudson
36,New york,NY,12856,Warren,North river,north river
36,New york,NY,12857,Essex,Olmstedville,olmstedville
36,New york,NY,12858,Essex,Paradox,paradox
36,New york,NY,12859,Saratoga,Porter corners,porter corners
36,New york,NY,12860,Warren,Pottersville,pottersville
36,New york,NY,12861,Washington,Putnam station,putnam station
36,New york,NY,12863,Saratoga,Rock city falls,rock city falls
36,New york,NY,12865,Washington,Salem,salem
36,New york,NY,12866,Saratoga,Wilton,wilton
36,New york,NY,12870,Essex,Schroon lake,schroon lake
36,New york,NY,12871,Saratoga,Schuylerville,schuylerville
36,New york,NY,12873,Washington,Shushan,shushan
36,New york,NY,12874,Warren,Silver bay,silver bay
36,New york,NY,12878,Warren,Stony creek,stony creek
36,New york,NY,12883,Essex,Ticonderoga,ticonderoga
36,New york,NY,12885,Warren,Warrensburg,warrensburg
36,New york,NY,12886,Warren,Wevertown,wevertown
36,New york,NY,12887,Washington,Whitehall,whitehall
36,New york,NY,128HH,Essex,Zcta 128hh,zcta 128hh
36,New york,NY,128XX,Hamilton,Zcta 128xx,zcta 128xx
36,New york,NY,12901,Clinton,Plattsburgh,plattsburgh
36,New york,NY,12903,Clinton,Plattsburgh a f,plattsburgh a f
36,New york,NY,12910,Clinton,Altona,altona
36,New york,NY,12911,Clinton,Au sable chasm,au sable chasm
36,New york,NY,12912,Clinton,Au sable forks,au sable forks
36,New york,NY,12913,Essex,Bloomingdale,bloomingdale
36,New york,NY,12914,Franklin,Bombay,bombay
36,New york,NY,12916,Franklin,Brushton,brushton
36,New york,NY,12917,Franklin,Burke,burke
36,New york,NY,12918,Clinton,Cadyville,cadyville
36,New york,NY,12919,Clinton,Champlain,champlain
36,New york,NY,12920,Franklin,Chateaugay,chateaugay
36,New york,NY,12921,Clinton,Chazy,chazy
36,New york,NY,12922,St. Lawrence,Childwold,childwold
36,New york,NY,12923,Clinton,Churubusco,churubusco
36,New york,NY,12926,Franklin,Constable,constable
36,New york,NY,12927,St. Lawrence,Cranberry lake,cranberry lake
36,New york,NY,12928,Essex,Crown point,crown point
36,New york,NY,12930,Franklin,Dickinson center,dickinson center
36,New york,NY,12932,Essex,Elizabethtown,elizabethtown
36,New york,NY,12934,Clinton,Ellenburg center,ellenburg center
36,New york,NY,12935,Clinton,Ellenburg depot,ellenburg depot
36,New york,NY,12936,Essex,Essex,essex
36,New york,NY,12937,Franklin,Fort covington,fort covington
36,New york,NY,12941,Essex,Jay,jay
36,New york,NY,12942,Essex,Keene,keene
36,New york,NY,12943,Essex,Saint huberts,saint huberts
36,New york,NY,12944,Essex,Keeseville,keeseville
36,New york,NY,12945,Franklin,Upper saint regi,upper saint regi
36,New york,NY,12946,Essex,North pole,north pole
36,New york,NY,12950,Essex,Lewis,lewis
36,New york,NY,12952,Clinton,Lyon mountain,lyon mountain
36,New york,NY,12953,Franklin,Malone,malone
36,New york,NY,12955,Clinton,Merrill,merrill
36,New york,NY,12956,Essex,Mineville,mineville
36,New york,NY,12957,Franklin,Moira,moira
36,New york,NY,12958,Clinton,Mooers,mooers
36,New york,NY,12959,Clinton,Mooers forks,mooers forks
36,New york,NY,12960,Essex,Moriah,moriah
36,New york,NY,12961,Essex,Moriah center,moriah center
36,New york,NY,12962,Clinton,Morrisonville,morrisonville
36,New york,NY,12964,Essex,New russia,new russia
36,New york,NY,12965,St. Lawrence,Nicholville,nicholville
36,New york,NY,12966,Franklin,Bangor,bangor
36,New york,NY,12967,St. Lawrence,North lawrence,north lawrence
36,New york,NY,12969,Franklin,Owls head,owls head
36,New york,NY,12970,Franklin,Paul smiths,paul smiths
36,New york,NY,12972,Clinton,Peru,peru
36,New york,NY,12974,Essex,Port henry,port henry
36,New york,NY,12979,Clinton,Rouses point,rouses point
36,New york,NY,12980,Franklin,Saint regis fall,saint regis fall
36,New york,NY,12981,Clinton,Saranac,saranac
36,New york,NY,12983,Franklin,Saranac lake,saranac lake
36,New york,NY,12985,Clinton,Schuyler falls,schuyler falls
36,New york,NY,12986,Franklin,Sunmount,sunmount
36,New york,NY,12987,Essex,Upper jay,upper jay
36,New york,NY,12989,Franklin,Vermontville,vermontville
36,New york,NY,12992,Clinton,West chazy,west chazy
36,New york,NY,12993,Essex,Westport,westport
36,New york,NY,12996,Essex,Willsboro,willsboro
36,New york,NY,129HH,Clinton,Zcta 129hh,zcta 129hh
36,New york,NY,129XX,Franklin,Zcta 129xx,zcta 129xx
36,New york,NY,13021,Cayuga,Auburn,auburn
36,New york,NY,13026,Cayuga,Aurora,aurora
36,New york,NY,13027,Onondaga,Baldwinsville,baldwinsville
36,New york,NY,13028,Oswego,Bernhards bay,bernhards bay
36,New york,NY,13029,Onondaga,Brewerton,brewerton
36,New york,NY,13030,Onondaga,Bridgeport,bridgeport
36,New york,NY,13031,Onondaga,Camillus,camillus
36,New york,NY,13032,Madison,Canastota,canastota
36,New york,NY,13033,Cayuga,Cato,cato
36,New york,NY,13034,Cayuga,Cayuga,cayuga
36,New york,NY,13035,Madison,Cazenovia,cazenovia
36,New york,NY,13036,Oswego,Central square,central square
36,New york,NY,13037,Madison,Chittenango,chittenango
36,New york,NY,13039,Onondaga,Cicero,cicero
36,New york,NY,13040,Cortland,Cincinnatus,cincinnatus
36,New york,NY,13041,Onondaga,Clay,clay
36,New york,NY,13042,Oneida,Cleveland,cleveland
36,New york,NY,13044,Oswego,Constantia,constantia
36,New york,NY,13045,Cortland,Cortland,cortland
36,New york,NY,13052,Madison,De ruyter,de ruyter
36,New york,NY,13053,Tompkins,Dryden,dryden
36,New york,NY,13054,Oneida,Durhamville,durhamville
36,New york,NY,13057,Onondaga,East syracuse,east syracuse
36,New york,NY,13060,Onondaga,Elbridge,elbridge
36,New york,NY,13061,Madison,Erieville,erieville
36,New york,NY,13062,Tompkins,Etna,etna
36,New york,NY,13063,Onondaga,Fabius,fabius
36,New york,NY,13066,Onondaga,Fayetteville,fayetteville
36,New york,NY,13068,Tompkins,Freeville,freeville
36,New york,NY,13069,Oswego,Fulton,fulton
36,New york,NY,13071,Cayuga,Genoa,genoa
36,New york,NY,13072,Madison,Georgetown,georgetown
36,New york,NY,13073,Tompkins,Groton,groton
36,New york,NY,13074,Oswego,Hannibal,hannibal
36,New york,NY,13076,Oswego,Hastings,hastings
36,New york,NY,13077,Cortland,Homer,homer
36,New york,NY,13078,Onondaga,Jamesville,jamesville
36,New york,NY,13080,Onondaga,Jordan,jordan
36,New york,NY,13081,Cayuga,King ferry,king ferry
36,New york,NY,13082,Madison,Kirkville,kirkville
36,New york,NY,13083,Oswego,Lacona,lacona
36,New york,NY,13084,Onondaga,La fayette,la fayette
36,New york,NY,13088,Onondaga,Liverpool,liverpool
36,New york,NY,13090,Onondaga,Bayberry,bayberry
36,New york,NY,13092,Cayuga,Locke,locke
36,New york,NY,130HH,Cayuga,Zcta 130hh,zcta 130hh
36,New york,NY,13101,Cortland,Mc graw,mc graw
36,New york,NY,13104,Onondaga,Manlius,manlius
36,New york,NY,13108,Onondaga,Marcellus,marcellus
36,New york,NY,13110,Onondaga,Marietta,marietta
36,New york,NY,13111,Cayuga,Martville,martville
36,New york,NY,13112,Onondaga,Memphis,memphis
36,New york,NY,13114,Oswego,Mexico,mexico
36,New york,NY,13116,Onondaga,Minoa,minoa
36,New york,NY,13118,Cayuga,Moravia,moravia
36,New york,NY,13120,Onondaga,Nedrow,nedrow
36,New york,NY,13122,Madison,New woodstock,new woodstock
36,New york,NY,13124,Chenango,North pitcher,north pitcher
36,New york,NY,13126,Oswego,Oswego,oswego
36,New york,NY,13131,Oswego,Parish,parish
36,New york,NY,13132,Oswego,Pennellville,pennellville
36,New york,NY,13135,Oswego,Phoenix,phoenix
36,New york,NY,13136,Chenango,Pitcher,pitcher
36,New york,NY,13140,Cayuga,Port byron,port byron
36,New york,NY,13141,Cortland,Preble,preble
36,New york,NY,13142,Oswego,Pulaski,pulaski
36,New york,NY,13143,Wayne,Red creek,red creek
36,New york,NY,13144,Oswego,Richland,richland
36,New york,NY,13145,Oswego,Sandy creek,sandy creek
36,New york,NY,13146,Wayne,Savannah,savannah
36,New york,NY,13147,Cayuga,Venice center,venice center
36,New york,NY,13148,Seneca,Seneca falls,seneca falls
36,New york,NY,13152,Onondaga,Skaneateles,skaneateles
36,New york,NY,13155,Chenango,South otselic,south otselic
36,New york,NY,13156,Cayuga,Sterling,sterling
36,New york,NY,13158,Cortland,Truxton,truxton
36,New york,NY,13159,Onondaga,Tully,tully
36,New york,NY,13160,Cayuga,Union springs,union springs
36,New york,NY,13164,Onondaga,Warners,warners
36,New york,NY,13165,Seneca,Waterloo,waterloo
36,New york,NY,13166,Cayuga,Weedsport,weedsport
36,New york,NY,13167,Oswego,West monroe,west monroe
36,New york,NY,131HH,Cayuga,Zcta 131hh,zcta 131hh
36,New york,NY,13202,Onondaga,Syracuse,syracuse
36,New york,NY,13203,Onondaga,Syracuse,syracuse
36,New york,NY,13204,Onondaga,Syracuse,syracuse
36,New york,NY,13205,Onondaga,Syracuse,syracuse
36,New york,NY,13206,Onondaga,Syracuse,syracuse
36,New york,NY,13207,Onondaga,Syracuse,syracuse
36,New york,NY,13208,Onondaga,Syracuse,syracuse
36,New york,NY,13209,Onondaga,Solvay,solvay
36,New york,NY,13210,Onondaga,Syracuse,syracuse
36,New york,NY,13211,Onondaga,Mattydale,mattydale
36,New york,NY,13212,Onondaga,North syracuse,north syracuse
36,New york,NY,13214,Onondaga,De witt,de witt
36,New york,NY,13215,Onondaga,Onondaga,onondaga
36,New york,NY,13219,Onondaga,Syracuse,syracuse
36,New york,NY,13224,Onondaga,Syracuse,syracuse
36,New york,NY,13290,Onondaga,Syracuse,syracuse
36,New york,NY,132HH,Onondaga,Zcta 132hh,zcta 132hh
36,New york,NY,13301,Oneida,Alder creek,alder creek
36,New york,NY,13302,Oswego,Altmar,altmar
36,New york,NY,13303,Oneida,Ava,ava
36,New york,NY,13304,Oneida,Barneveld,barneveld
36,New york,NY,13308,Oneida,Blossvale,blossvale
36,New york,NY,13309,Oneida,Boonville,boonville
36,New york,NY,13310,Madison,Bouckville,bouckville
36,New york,NY,13312,Lewis,Glenfield,glenfield
36,New york,NY,13313,Oneida,Bridgewater,bridgewater
36,New york,NY,13314,Madison,Brookfield,brookfield
36,New york,NY,13315,Otsego,Burlington flats,burlington flats
36,New york,NY,13316,Oneida,Camden,camden
36,New york,NY,13317,Montgomery,Ames,ames
36,New york,NY,13318,Oneida,Cassville,cassville
36,New york,NY,13319,Oneida,Chadwicks,chadwicks
36,New york,NY,13320,Otsego,Cherry valley,cherry valley
36,New york,NY,13322,Oneida,Clayville,clayville
36,New york,NY,13323,Oneida,Clinton,clinton
36,New york,NY,13324,Herkimer,Cold brook,cold brook
36,New york,NY,13325,Lewis,Constableville,constableville
36,New york,NY,13326,Otsego,Cooperstown,cooperstown
36,New york,NY,13327,Lewis,Croghan,croghan
36,New york,NY,13328,Oneida,Deansboro,deansboro
36,New york,NY,13329,Herkimer,Dolgeville,dolgeville
36,New york,NY,13331,Herkimer,Eagle bay,eagle bay
36,New york,NY,13332,Madison,Earlville,earlville
36,New york,NY,13333,Otsego,East springfield,east springfield
36,New york,NY,13334,Madison,Eaton,eaton
36,New york,NY,13335,Otsego,Edmeston,edmeston
36,New york,NY,13337,Otsego,Fly creek,fly creek
36,New york,NY,13338,Oneida,Forestport,forestport
36,New york,NY,13339,Montgomery,Fort plain,fort plain
36,New york,NY,13340,Herkimer,Frankfort,frankfort
36,New york,NY,13341,Oneida,Franklin springs,franklin springs
36,New york,NY,13342,Otsego,Garrattsville,garrattsville
36,New york,NY,13343,Lewis,Glenfield,glenfield
36,New york,NY,13346,Madison,Hamilton,hamilton
36,New york,NY,13348,Otsego,Hartwick,hartwick
36,New york,NY,13350,Herkimer,Herkimer,herkimer
36,New york,NY,13353,Hamilton,Hoffmeister,hoffmeister
36,New york,NY,13354,Oneida,Holland patent,holland patent
36,New york,NY,13355,Madison,Hubbardsville,hubbardsville
36,New york,NY,13357,Herkimer,Ilion,ilion
36,New york,NY,13360,Hamilton,Inlet,inlet
36,New york,NY,13361,Herkimer,Jordanville,jordanville
36,New york,NY,13363,Oneida,Lee center,lee center
36,New york,NY,13365,Herkimer,Little falls,little falls
36,New york,NY,13367,Lewis,Beaver river,beaver river
36,New york,NY,13368,Lewis,Lyons falls,lyons falls
36,New york,NY,133HH,Hamilton,Zcta 133hh,zcta 133hh
36,New york,NY,133XX,Hamilton,Zcta 133xx,zcta 133xx
36,New york,NY,13402,Madison,Madison,madison
36,New york,NY,13403,Oneida,Marcy,marcy
36,New york,NY,13406,Herkimer,Middleville,middleville
36,New york,NY,13407,Herkimer,Mohawk,mohawk
36,New york,NY,13408,Madison,Morrisville,morrisville
36,New york,NY,13409,Madison,Munnsville,munnsville
36,New york,NY,13411,Chenango,New berlin,new berlin
36,New york,NY,13413,Oneida,New hartford,new hartford
36,New york,NY,13416,Herkimer,Newport,newport
36,New york,NY,13417,Oneida,New york mills,new york mills
36,New york,NY,13418,Madison,North brookfield,north brookfield
36,New york,NY,13420,Herkimer,Old forge,old forge
36,New york,NY,13421,Madison,Oneida,oneida
36,New york,NY,13424,Oneida,Oriskany,oriskany
36,New york,NY,13425,Oneida,Oriskany falls,oriskany falls
36,New york,NY,13428,Montgomery,Palatine bridge,palatine bridge
36,New york,NY,13431,Herkimer,Poland,poland
36,New york,NY,13433,Lewis,Port leyden,port leyden
36,New york,NY,13436,Hamilton,Raquette lake,raquette lake
36,New york,NY,13437,Oswego,Redfield,redfield
36,New york,NY,13438,Oneida,Remsen,remsen
36,New york,NY,13439,Otsego,Richfield spring,richfield spring
36,New york,NY,13440,Oneida,Rome,rome
36,New york,NY,13450,Otsego,Roseboom,roseboom
36,New york,NY,13452,Montgomery,Saint johnsville,saint johnsville
36,New york,NY,13454,Herkimer,Salisbury center,salisbury center
36,New york,NY,13456,Oneida,Sauquoit,sauquoit
36,New york,NY,13459,Schoharie,Sharon springs,sharon springs
36,New york,NY,13460,Chenango,Sherburne,sherburne
36,New york,NY,13461,Oneida,Sherrill,sherrill
36,New york,NY,13464,Chenango,Smyrna,smyrna
36,New york,NY,13468,Otsego,Springfield cent,springfield cent
36,New york,NY,13469,Oneida,Stittville,stittville
36,New york,NY,13470,Fulton,Stratford,stratford
36,New york,NY,13471,Oneida,Taberg,taberg
36,New york,NY,13473,Lewis,Turin,turin
36,New york,NY,13475,Otsego,Van hornesville,van hornesville
36,New york,NY,13476,Oneida,Vernon,vernon
36,New york,NY,13477,Oneida,Vernon center,vernon center
36,New york,NY,13478,Oneida,Verona,verona
36,New york,NY,13480,Oneida,Waterville,waterville
36,New york,NY,13483,Oneida,Westdale,westdale
36,New york,NY,13485,Madison,West edmeston,west edmeston
36,New york,NY,13486,Oneida,Westernville,westernville
36,New york,NY,13489,Lewis,West leyden,west leyden
36,New york,NY,13490,Oneida,Westmoreland,westmoreland
36,New york,NY,13491,Herkimer,West winfield,west winfield
36,New york,NY,13492,Oneida,Whitesboro,whitesboro
36,New york,NY,13493,Oswego,Williamstown,williamstown
36,New york,NY,13495,Oneida,Yorkville,yorkville
36,New york,NY,134HH,Fulton,Zcta 134hh,zcta 134hh
36,New york,NY,134XX,Hamilton,Zcta 134xx,zcta 134xx
36,New york,NY,13501,Oneida,Utica,utica
36,New york,NY,13502,Oneida,Utica,utica
36,New york,NY,135HH,Oneida,Zcta 135hh,zcta 135hh
36,New york,NY,13601,Jefferson,Watertown,watertown
36,New york,NY,13602,Jefferson,Fort drum,fort drum
36,New york,NY,13603,Jefferson,Fort drum,fort drum
36,New york,NY,13605,Jefferson,Smithville,smithville
36,New york,NY,13606,Jefferson,Adams center,adams center
36,New york,NY,13607,Jefferson,Point vivian,point vivian
36,New york,NY,13608,Jefferson,Antwerp,antwerp
36,New york,NY,13612,Jefferson,Black river,black river
36,New york,NY,13613,St. Lawrence,Brasher falls,brasher falls
36,New york,NY,13614,St. Lawrence,Brier hill,brier hill
36,New york,NY,13615,Jefferson,Brownville,brownville
36,New york,NY,13616,Jefferson,Calcium,calcium
36,New york,NY,13617,St. Lawrence,Canton,canton
36,New york,NY,13618,Jefferson,Cape vincent,cape vincent
36,New york,NY,13619,Jefferson,Carthage,carthage
36,New york,NY,13620,Lewis,Castorland,castorland
36,New york,NY,13621,St. Lawrence,Chase mills,chase mills
36,New york,NY,13622,Jefferson,Chaumont,chaumont
36,New york,NY,13624,Jefferson,Frontenac,frontenac
36,New york,NY,13625,St. Lawrence,Colton,colton
36,New york,NY,13626,Lewis,Copenhagen,copenhagen
36,New york,NY,13630,St. Lawrence,De kalb junction,de kalb junction
36,New york,NY,13633,St. Lawrence,De peyster,de peyster
36,New york,NY,13634,Jefferson,Dexter,dexter
36,New york,NY,13635,St. Lawrence,Edwards,edwards
36,New york,NY,13637,Jefferson,Evans mills,evans mills
36,New york,NY,13638,Jefferson,Felts mills,felts mills
36,New york,NY,13639,St. Lawrence,Fine,fine
36,New york,NY,13640,Jefferson,Wellesley island,wellesley island
36,New york,NY,13642,St. Lawrence,Gouverneur,gouverneur
36,New york,NY,13646,St. Lawrence,Hammond,hammond
36,New york,NY,13648,Lewis,Harrisville,harrisville
36,New york,NY,13650,Jefferson,Henderson,henderson
36,New york,NY,13652,St. Lawrence,Hermon,hermon
36,New york,NY,13654,St. Lawrence,Heuvelton,heuvelton
36,New york,NY,13655,Franklin,Hogansburg,hogansburg
36,New york,NY,13656,Jefferson,La fargeville,la fargeville
36,New york,NY,13658,St. Lawrence,Lisbon,lisbon
36,New york,NY,13659,Jefferson,Lorraine,lorraine
36,New york,NY,13660,St. Lawrence,Madrid,madrid
36,New york,NY,13661,Jefferson,Mannsville,mannsville
36,New york,NY,13662,St. Lawrence,Massena,massena
36,New york,NY,13664,St. Lawrence,Morristown,morristown
36,New york,NY,13665,Jefferson,Natural bridge,natural bridge
36,New york,NY,13667,St. Lawrence,Norfolk,norfolk
36,New york,NY,13668,St. Lawrence,Norwood,norwood
36,New york,NY,13669,St. Lawrence,Ogdensburg,ogdensburg
36,New york,NY,13670,St. Lawrence,Oswegatchie,oswegatchie
36,New york,NY,13672,St. Lawrence,Parishville,parishville
36,New york,NY,13673,Jefferson,Philadelphia,philadelphia
36,New york,NY,13675,Jefferson,Plessis,plessis
36,New york,NY,13676,St. Lawrence,Potsdam,potsdam
36,New york,NY,13679,Jefferson,Redwood,redwood
36,New york,NY,13680,St. Lawrence,Rensselaer falls,rensselaer falls
36,New york,NY,13681,St. Lawrence,Richville,richville
36,New york,NY,13682,Jefferson,Rodman,rodman
36,New york,NY,13684,St. Lawrence,Degrasse,degrasse
36,New york,NY,13685,Jefferson,Sackets harbor,sackets harbor
36,New york,NY,13687,St. Lawrence,South colton,south colton
36,New york,NY,13690,St. Lawrence,Star lake,star lake
36,New york,NY,13691,Jefferson,Theresa,theresa
36,New york,NY,13693,Jefferson,Three mile bay,three mile bay
36,New york,NY,13694,St. Lawrence,Waddington,waddington
36,New york,NY,13697,St. Lawrence,Winthrop,winthrop
36,New york,NY,136HH,Franklin,Zcta 136hh,zcta 136hh
36,New york,NY,136XX,Jefferson,Zcta 136xx,zcta 136xx
36,New york,NY,13730,Chenango,Afton,afton
36,New york,NY,13731,Delaware,Andes,andes
36,New york,NY,13732,Tioga,Apalachin,apalachin
36,New york,NY,13733,Chenango,Bainbridge,bainbridge
36,New york,NY,13734,Tioga,Barton,barton
36,New york,NY,13736,Tioga,Berkshire,berkshire
36,New york,NY,13739,Delaware,Bloomville,bloomville
36,New york,NY,13740,Delaware,Bovina center,bovina center
36,New york,NY,13743,Tioga,Candor,candor
36,New york,NY,13744,Broome,Castle creek,castle creek
36,New york,NY,13746,Broome,Chenango forks,chenango forks
36,New york,NY,13748,Broome,Conklin,conklin
36,New york,NY,13750,Delaware,Davenport,davenport
36,New york,NY,13752,Delaware,De lancey,de lancey
36,New york,NY,13753,Delaware,Meredith,meredith
36,New york,NY,13754,Broome,Deposit,deposit
36,New york,NY,13755,Delaware,Downsville,downsville
36,New york,NY,13756,Delaware,East branch,east branch
36,New york,NY,13757,Delaware,East meredith,east meredith
36,New york,NY,13760,Broome,Endwell,endwell
36,New york,NY,13774,Delaware,Fishs eddy,fishs eddy
36,New york,NY,13775,Delaware,Franklin,franklin
36,New york,NY,13776,Otsego,Gilbertsville,gilbertsville
36,New york,NY,13777,Broome,Glen aubrey,glen aubrey
36,New york,NY,13778,Chenango,Greene,greene
36,New york,NY,13780,Chenango,Guilford,guilford
36,New york,NY,13782,Delaware,Hamden,hamden
36,New york,NY,13783,Delaware,Cadosia,cadosia
36,New york,NY,13786,Delaware,Harpersfield,harpersfield
36,New york,NY,13787,Broome,Harpursville,harpursville
36,New york,NY,13788,Delaware,Hobart,hobart
36,New york,NY,13790,Broome,Johnson city,johnson city
36,New york,NY,13795,Broome,Kirkwood,kirkwood
36,New york,NY,13796,Otsego,Laurens,laurens
36,New york,NY,13797,Broome,Lisle,lisle
36,New york,NY,137HH,Broome,Zcta 137hh,zcta 137hh
36,New york,NY,13801,Chenango,Mc donough,mc donough
36,New york,NY,13802,Broome,Maine,maine
36,New york,NY,13803,Cortland,Marathon,marathon
36,New york,NY,13804,Delaware,Masonville,masonville
36,New york,NY,13807,Otsego,Milford,milford
36,New york,NY,13808,Otsego,Morris,morris
36,New york,NY,13809,Chenango,Mount upton,mount upton
36,New york,NY,13810,Otsego,Mount vision,mount vision
36,New york,NY,13811,Tioga,Newark valley,newark valley
36,New york,NY,13812,Tioga,Nichols,nichols
36,New york,NY,13813,Broome,Nineveh,nineveh
36,New york,NY,13815,Chenango,Norwich,norwich
36,New york,NY,13820,Otsego,Oneonta,oneonta
36,New york,NY,13825,Otsego,Otego,otego
36,New york,NY,13827,Tioga,Owego,owego
36,New york,NY,13830,Chenango,Brisben,brisben
36,New york,NY,13832,Chenango,Plymouth,plymouth
36,New york,NY,13833,Broome,Sanitaria spring,sanitaria spring
36,New york,NY,13834,Otsego,Portlandville,portlandville
36,New york,NY,13835,Tioga,Richford,richford
36,New york,NY,13838,Delaware,Sidney,sidney
36,New york,NY,13839,Delaware,Sidney center,sidney center
36,New york,NY,13841,Chenango,Smithville flats,smithville flats
36,New york,NY,13842,Delaware,South kortright,south kortright
36,New york,NY,13843,Chenango,South new berlin,south new berlin
36,New york,NY,13844,Chenango,South plymouth,south plymouth
36,New york,NY,13846,Delaware,Treadwell,treadwell
36,New york,NY,13849,Otsego,Unadilla,unadilla
36,New york,NY,13850,Broome,Vestal,vestal
36,New york,NY,13856,Delaware,Walton,walton
36,New york,NY,13859,Otsego,Wells bridge,wells bridge
36,New york,NY,13861,Otsego,West oneonta,west oneonta
36,New york,NY,13862,Broome,Whitney point,whitney point
36,New york,NY,13863,Cortland,Willet,willet
36,New york,NY,13864,Tioga,Willseyville,willseyville
36,New york,NY,13865,Broome,Windsor,windsor
36,New york,NY,138HH,Broome,Zcta 138hh,zcta 138hh
36,New york,NY,13901,Broome,Binghamton,binghamton
36,New york,NY,13903,Broome,Binghamton,binghamton
36,New york,NY,13904,Broome,Binghamton,binghamton
36,New york,NY,13905,Broome,Binghamton,binghamton
36,New york,NY,139HH,Broome,Zcta 139hh,zcta 139hh
36,New york,NY,14001,Erie,Akron,akron
36,New york,NY,14004,Erie,Alden,alden
36,New york,NY,14005,Genesee,Alexander,alexander
36,New york,NY,14006,Erie,Angola,angola
36,New york,NY,14008,Niagara,Appleton,appleton
36,New york,NY,14009,Wyoming,Arcade,arcade
36,New york,NY,14011,Wyoming,Attica,attica
36,New york,NY,14012,Niagara,Barker,barker
36,New york,NY,14013,Genesee,Basom,basom
36,New york,NY,14020,Genesee,Batavia,batavia
36,New york,NY,14024,Wyoming,Bliss,bliss
36,New york,NY,14025,Erie,Boston,boston
36,New york,NY,14026,Erie,Bowmansville,bowmansville
36,New york,NY,14028,Niagara,Burt,burt
36,New york,NY,14030,Erie,Chaffee,chaffee
36,New york,NY,14031,Erie,Clarence,clarence
36,New york,NY,14032,Erie,Clarence center,clarence center
36,New york,NY,14033,Erie,Colden,colden
36,New york,NY,14034,Erie,Collins,collins
36,New york,NY,14036,Genesee,Corfu,corfu
36,New york,NY,14037,Wyoming,Cowlesville,cowlesville
36,New york,NY,14039,Wyoming,Dale,dale
36,New york,NY,14040,Genesee,Darien center,darien center
36,New york,NY,14042,Cattaraugus,Delevan,delevan
36,New york,NY,14043,Erie,Depew,depew
36,New york,NY,14047,Erie,Derby,derby
36,New york,NY,14048,Chautauqua,Van buren bay,van buren bay
36,New york,NY,14051,Erie,Swormville,swormville
36,New york,NY,14052,Erie,East aurora,east aurora
36,New york,NY,14054,Genesee,East bethany,east bethany
36,New york,NY,14055,Erie,East concord,east concord
36,New york,NY,14057,Erie,Eden,eden
36,New york,NY,14058,Genesee,Elba,elba
36,New york,NY,14059,Erie,Elma,elma
36,New york,NY,14060,Cattaraugus,Farmersville sta,farmersville sta
36,New york,NY,14062,Chautauqua,Forestville,forestville
36,New york,NY,14063,Chautauqua,Fredonia,fredonia
36,New york,NY,14065,Cattaraugus,Freedom,freedom
36,New york,NY,14066,Wyoming,Gainesville,gainesville
36,New york,NY,14067,Niagara,Gasport,gasport
36,New york,NY,14068,Erie,Getzville,getzville
36,New york,NY,14069,Erie,Glenwood,glenwood
36,New york,NY,14070,Cattaraugus,Gowanda,gowanda
36,New york,NY,14072,Erie,Grand island,grand island
36,New york,NY,14075,Erie,Hamburg,hamburg
36,New york,NY,14080,Erie,Holland,holland
36,New york,NY,14081,Erie,Irving,irving
36,New york,NY,14082,Wyoming,Java center,java center
36,New york,NY,14083,Wyoming,Java village,java village
36,New york,NY,14085,Erie,Lake view,lake view
36,New york,NY,14086,Erie,Lancaster,lancaster
36,New york,NY,14091,Erie,Lawtons,lawtons
36,New york,NY,14092,Niagara,Lewiston,lewiston
36,New york,NY,14094,Niagara,Lockport,lockport
36,New york,NY,14098,Orleans,Lyndonville,lyndonville
36,New york,NY,140HH,Chautauqua,Zcta 140hh,zcta 140hh
36,New york,NY,14101,Cattaraugus,Machias,machias
36,New york,NY,14102,Erie,Marilla,marilla
36,New york,NY,14103,Orleans,Medina,medina
36,New york,NY,14105,Niagara,Middleport,middleport
36,New york,NY,14108,Niagara,Newfane,newfane
36,New york,NY,14111,Erie,North collins,north collins
36,New york,NY,14113,Wyoming,North java,north java
36,New york,NY,14120,Niagara,North tonawanda,north tonawanda
36,New york,NY,14125,Genesee,Oakfield,oakfield
36,New york,NY,14127,Erie,Orchard park,orchard park
36,New york,NY,14129,Cattaraugus,Perrysburg,perrysburg
36,New york,NY,14131,Niagara,Ransomville,ransomville
36,New york,NY,14132,Niagara,Sanborn,sanborn
36,New york,NY,14134,Erie,Sardinia,sardinia
36,New york,NY,14136,Chautauqua,Silver creek,silver creek
36,New york,NY,14138,Cattaraugus,South dayton,south dayton
36,New york,NY,14139,Erie,South wales,south wales
36,New york,NY,14141,Erie,Springville,springville
36,New york,NY,14143,Genesee,Stafford,stafford
36,New york,NY,14145,Wyoming,Strykersville,strykersville
36,New york,NY,14150,Erie,Tonawanda,tonawanda
36,New york,NY,14167,Wyoming,Varysburg,varysburg
36,New york,NY,14170,Erie,West falls,west falls
36,New york,NY,14171,Cattaraugus,West valley,west valley
36,New york,NY,14172,Niagara,Wilson,wilson
36,New york,NY,14174,Niagara,Youngstown,youngstown
36,New york,NY,141HH,Chautauqua,Zcta 141hh,zcta 141hh
36,New york,NY,14201,Erie,Buffalo,buffalo
36,New york,NY,14202,Erie,Buffalo,buffalo
36,New york,NY,14203,Erie,Buffalo,buffalo
36,New york,NY,14204,Erie,Buffalo,buffalo
36,New york,NY,14206,Erie,Buffalo,buffalo
36,New york,NY,14207,Erie,Buffalo,buffalo
36,New york,NY,14208,Erie,Buffalo,buffalo
36,New york,NY,14209,Erie,Buffalo,buffalo
36,New york,NY,14210,Erie,Buffalo,buffalo
36,New york,NY,14211,Erie,Buffalo,buffalo
36,New york,NY,14212,Erie,Buffalo,buffalo
36,New york,NY,14213,Erie,Buffalo,buffalo
36,New york,NY,14214,Erie,Buffalo,buffalo
36,New york,NY,14215,Erie,Buffalo,buffalo
36,New york,NY,14216,Erie,Buffalo,buffalo
36,New york,NY,14217,Erie,Kenmore,kenmore
36,New york,NY,14218,Erie,Lackawanna,lackawanna
36,New york,NY,14219,Erie,Blasdell,blasdell
36,New york,NY,14220,Erie,Buffalo,buffalo
36,New york,NY,14221,Erie,Williamsville,williamsville
36,New york,NY,14222,Erie,Buffalo,buffalo
36,New york,NY,14223,Erie,Buffalo,buffalo
36,New york,NY,14224,Erie,West seneca,west seneca
36,New york,NY,14225,Erie,Cheektowaga,cheektowaga
36,New york,NY,14226,Erie,Amherst,amherst
36,New york,NY,14227,Erie,Cheektowaga,cheektowaga
36,New york,NY,14228,Erie,Amherst,amherst
36,New york,NY,142HH,Erie,Zcta 142hh,zcta 142hh
36,New york,NY,14301,Niagara,Niagara falls,niagara falls
36,New york,NY,14303,Niagara,Niagara falls,niagara falls
36,New york,NY,14304,Niagara,Niagara falls,niagara falls
36,New york,NY,14305,Niagara,Niagara falls,niagara falls
36,New york,NY,143HH,Niagara,Zcta 143hh,zcta 143hh
36,New york,NY,14411,Orleans,Albion,albion
36,New york,NY,14414,Livingston,Avon,avon
36,New york,NY,14415,Yates,Bellona,bellona
36,New york,NY,14416,Genesee,Bergen,bergen
36,New york,NY,14418,Yates,Branchport,branchport
36,New york,NY,14420,Monroe,Brockport,brockport
36,New york,NY,14422,Genesee,Byron,byron
36,New york,NY,14423,Livingston,Caledonia,caledonia
36,New york,NY,14424,Ontario,Canandaigua,canandaigua
36,New york,NY,14425,Ontario,Canandaigua,canandaigua
36,New york,NY,14427,Wyoming,Castile,castile
36,New york,NY,14428,Monroe,Clifton,clifton
36,New york,NY,14432,Ontario,Clifton springs,clifton springs
36,New york,NY,14433,Wayne,Clyde,clyde
36,New york,NY,14435,Livingston,Conesus,conesus
36,New york,NY,14437,Livingston,Dansville,dansville
36,New york,NY,14441,Yates,Dresden,dresden
36,New york,NY,14445,Monroe,East rochester,east rochester
36,New york,NY,14450,Monroe,Fairport,fairport
36,New york,NY,14454,Livingston,Geneseo,geneseo
36,New york,NY,14456,Ontario,Geneva,geneva
36,New york,NY,14462,Livingston,Groveland,groveland
36,New york,NY,14464,Monroe,Hamlin,hamlin
36,New york,NY,14466,Ontario,Hemlock,hemlock
36,New york,NY,14467,Monroe,Henrietta,henrietta
36,New york,NY,14468,Monroe,Hilton,hilton
36,New york,NY,14469,Ontario,Bloomfield,bloomfield
36,New york,NY,14470,Orleans,Hulberton,hulberton
36,New york,NY,14471,Ontario,Honeoye,honeoye
36,New york,NY,14472,Monroe,Honeoye falls,honeoye falls
36,New york,NY,14475,Ontario,Ionia,ionia
36,New york,NY,14476,Orleans,Kendall,kendall
36,New york,NY,14477,Orleans,Kent,kent
36,New york,NY,14478,Yates,Bluff point,bluff point
36,New york,NY,14480,Livingston,Lakeville,lakeville
36,New york,NY,14481,Livingston,Leicester,leicester
36,New york,NY,14482,Genesee,Le roy,le roy
36,New york,NY,14485,Livingston,Lima,lima
36,New york,NY,14487,Livingston,Livonia,livonia
36,New york,NY,14489,Wayne,Lyons,lyons
36,New york,NY,144HH,Livingston,Zcta 144hh,zcta 144hh
36,New york,NY,14502,Wayne,Macedon,macedon
36,New york,NY,14504,Ontario,Manchester,manchester
36,New york,NY,14505,Wayne,Marion,marion
36,New york,NY,14506,Monroe,Mendon,mendon
36,New york,NY,14507,Yates,Middlesex,middlesex
36,New york,NY,14510,Livingston,Tuscarora,tuscarora
36,New york,NY,14512,Ontario,Naples,naples
36,New york,NY,14513,Wayne,Newark,newark
36,New york,NY,14514,Monroe,North chili,north chili
36,New york,NY,14516,Wayne,North rose,north rose
36,New york,NY,14517,Livingston,Nunda,nunda
36,New york,NY,14519,Wayne,Ontario,ontario
36,New york,NY,14521,Seneca,Hayt corners,hayt corners
36,New york,NY,14522,Wayne,Palmyra,palmyra
36,New york,NY,14525,Genesee,Linwood,linwood
36,New york,NY,14526,Monroe,Penfield,penfield
36,New york,NY,14527,Yates,Penn yan,penn yan
36,New york,NY,14530,Wyoming,Perry,perry
36,New york,NY,14532,Ontario,Phelps,phelps
36,New york,NY,14533,Livingston,Wadsworth,wadsworth
36,New york,NY,14534,Monroe,Pittsford,pittsford
36,New york,NY,14536,Wyoming,Portageville,portageville
36,New york,NY,14541,Seneca,Mac dougall,mac dougall
36,New york,NY,14543,Monroe,West rush,west rush
36,New york,NY,14544,Yates,Rushville,rushville
36,New york,NY,14545,Livingston,Scottsburg,scottsburg
36,New york,NY,14546,Monroe,Scottsville,scottsville
36,New york,NY,14548,Ontario,Shortsville,shortsville
36,New york,NY,14550,Wyoming,Rock glen,rock glen
36,New york,NY,14551,Wayne,Sodus,sodus
36,New york,NY,14555,Wayne,Sodus point,sodus point
36,New york,NY,14559,Monroe,Spencerport,spencerport
36,New york,NY,14560,Livingston,Springwater,springwater
36,New york,NY,14561,Ontario,Stanley,stanley
36,New york,NY,14564,Ontario,Victor,victor
36,New york,NY,14568,Wayne,Walworth,walworth
36,New york,NY,14569,Wyoming,Warsaw,warsaw
36,New york,NY,14571,Orleans,Waterport,waterport
36,New york,NY,14572,Steuben,Wayland,wayland
36,New york,NY,14580,Monroe,Webster,webster
36,New york,NY,14585,Ontario,West bloomfield,west bloomfield
36,New york,NY,14586,Monroe,West henrietta,west henrietta
36,New york,NY,14589,Wayne,Williamson,williamson
36,New york,NY,14590,Wayne,Wolcott,wolcott
36,New york,NY,14591,Wyoming,Wyoming,wyoming
36,New york,NY,145HH,Livingston,Zcta 145hh,zcta 145hh
36,New york,NY,14604,Monroe,Rochester,rochester
36,New york,NY,14605,Monroe,Rochester,rochester
36,New york,NY,14606,Monroe,Rochester,rochester
36,New york,NY,14607,Monroe,Rochester,rochester
36,New york,NY,14608,Monroe,Rochester,rochester
36,New york,NY,14609,Monroe,Rochester,rochester
36,New york,NY,14610,Monroe,Rochester,rochester
36,New york,NY,14611,Monroe,Rochester,rochester
36,New york,NY,14612,Monroe,Rochester,rochester
36,New york,NY,14613,Monroe,Rochester,rochester
36,New york,NY,14614,Monroe,Rochester,rochester
36,New york,NY,14615,Monroe,Rochester,rochester
36,New york,NY,14616,Monroe,Greece,greece
36,New york,NY,14617,Monroe,Rochester,rochester
36,New york,NY,14618,Monroe,Twelve corners,twelve corners
36,New york,NY,14619,Monroe,Rochester,rochester
36,New york,NY,14620,Monroe,Rochester,rochester
36,New york,NY,14621,Monroe,Rochester,rochester
36,New york,NY,14622,Monroe,Rochester,rochester
36,New york,NY,14623,Monroe,Rochester,rochester
36,New york,NY,14624,Monroe,Westgate,westgate
36,New york,NY,14625,Monroe,Panorama,panorama
36,New york,NY,14626,Monroe,Rochester,rochester
36,New york,NY,146HH,Monroe,Zcta 146hh,zcta 146hh
36,New york,NY,14701,Chautauqua,Jamestown,jamestown
36,New york,NY,14706,Cattaraugus,Allegany,allegany
36,New york,NY,14708,Allegany,Alma,alma
36,New york,NY,14709,Allegany,Angelica,angelica
36,New york,NY,14710,Chautauqua,Ashville,ashville
36,New york,NY,14711,Allegany,Belfast,belfast
36,New york,NY,14712,Chautauqua,Bemus point,bemus point
36,New york,NY,14714,Allegany,Black creek,black creek
36,New york,NY,14715,Allegany,Bolivar,bolivar
36,New york,NY,14716,Chautauqua,Brocton,brocton
36,New york,NY,14717,Allegany,Caneadea,caneadea
36,New york,NY,14718,Chautauqua,Cassadaga,cassadaga
36,New york,NY,14719,Cattaraugus,Cattaraugus,cattaraugus
36,New york,NY,14721,Allegany,Ceres,ceres
36,New york,NY,14723,Chautauqua,Cherry creek,cherry creek
36,New york,NY,14724,Chautauqua,Clymer,clymer
36,New york,NY,14726,Cattaraugus,Conewango valley,conewango valley
36,New york,NY,14727,Allegany,Cuba,cuba
36,New york,NY,14728,Chautauqua,Dewittville,dewittville
36,New york,NY,14729,Cattaraugus,East otto,east otto
36,New york,NY,14731,Cattaraugus,Ellicottville,ellicottville
36,New york,NY,14733,Chautauqua,Falconer,falconer
36,New york,NY,14735,Allegany,Fillmore,fillmore
36,New york,NY,14736,Chautauqua,Findley lake,findley lake
36,New york,NY,14737,Cattaraugus,Franklinville,franklinville
36,New york,NY,14738,Chautauqua,Frewsburg,frewsburg
36,New york,NY,14739,Allegany,Friendship,friendship
36,New york,NY,14740,Chautauqua,Gerry,gerry
36,New york,NY,14741,Cattaraugus,Great valley,great valley
36,New york,NY,14743,Cattaraugus,Ischua,ischua
36,New york,NY,14744,Allegany,Houghton,houghton
36,New york,NY,14747,Chautauqua,Kennedy,kennedy
36,New york,NY,14748,Cattaraugus,Kill buck,kill buck
36,New york,NY,14750,Chautauqua,Lakewood,lakewood
36,New york,NY,14753,Cattaraugus,Limestone,limestone
36,New york,NY,14754,Allegany,Little genesee,little genesee
36,New york,NY,14755,Cattaraugus,Little valley,little valley
36,New york,NY,14757,Chautauqua,Mayville,mayville
36,New york,NY,14760,Cattaraugus,Olean,olean
36,New york,NY,14767,Chautauqua,Panama,panama
36,New york,NY,14769,Chautauqua,Portland,portland
36,New york,NY,14770,Cattaraugus,Portville,portville
36,New york,NY,14772,Cattaraugus,Randolph,randolph
36,New york,NY,14775,Chautauqua,Ripley,ripley
36,New york,NY,14777,Allegany,Rushford,rushford
36,New york,NY,14779,Cattaraugus,Salamanca,salamanca
36,New york,NY,14781,Chautauqua,Sherman,sherman
36,New york,NY,14782,Chautauqua,Sinclairville,sinclairville
36,New york,NY,14783,Cattaraugus,Steamburg,steamburg
36,New york,NY,14784,Chautauqua,Stockton,stockton
36,New york,NY,14787,Chautauqua,Westfield,westfield
36,New york,NY,147HH,Allegany,Zcta 147hh,zcta 147hh
36,New york,NY,147XX,Cattaraugus,Zcta 147xx,zcta 147xx
36,New york,NY,14801,Steuben,Addison,addison
36,New york,NY,14802,Allegany,Alfred,alfred
36,New york,NY,14803,Allegany,Alfred station,alfred station
36,New york,NY,14804,Allegany,Almond,almond
36,New york,NY,14805,Schuyler,Alpine,alpine
36,New york,NY,14806,Allegany,Andover,andover
36,New york,NY,14807,Steuben,Arkport,arkport
36,New york,NY,14808,Steuben,Atlanta,atlanta
36,New york,NY,14809,Steuben,Wallace,wallace
36,New york,NY,14810,Steuben,Veterans adminis,veterans adminis
36,New york,NY,14812,Schuyler,Beaver dams,beaver dams
36,New york,NY,14813,Allegany,Belmont,belmont
36,New york,NY,14814,Chemung,Big flats,big flats
36,New york,NY,14815,Schuyler,Bradford,bradford
36,New york,NY,14816,Chemung,Breesport,breesport
36,New york,NY,14817,Tompkins,Brooktondale,brooktondale
36,New york,NY,14818,Schuyler,Burdett,burdett
36,New york,NY,14819,Steuben,Cameron,cameron
36,New york,NY,14820,Steuben,Cameron mills,cameron mills
36,New york,NY,14821,Steuben,Campbell,campbell
36,New york,NY,14822,Allegany,Canaseraga,canaseraga
36,New york,NY,14823,Steuben,Canisteo,canisteo
36,New york,NY,14824,Schuyler,Cayuta,cayuta
36,New york,NY,14825,Chemung,Chemung,chemung
36,New york,NY,14826,Steuben,Cohocton,cohocton
36,New york,NY,14830,Steuben,Corning,corning
36,New york,NY,14836,Livingston,Dalton,dalton
36,New york,NY,14837,Yates,Dundee,dundee
36,New york,NY,14838,Chemung,Erin,erin
36,New york,NY,14839,Steuben,Greenwood,greenwood
36,New york,NY,14840,Steuben,Hammondsport,hammondsport
36,New york,NY,14841,Schuyler,Hector,hector
36,New york,NY,14842,Yates,Himrod,himrod
36,New york,NY,14843,Steuben,Hornell,hornell
36,New york,NY,14845,Chemung,Horseheads,horseheads
36,New york,NY,14846,Livingston,Hunt,hunt
36,New york,NY,14847,Seneca,Interlaken,interlaken
36,New york,NY,14850,Tompkins,Ithaca college,ithaca college
36,New york,NY,14855,Steuben,Jasper,jasper
36,New york,NY,14857,Yates,Lakemont,lakemont
36,New york,NY,14858,Steuben,Lindley,lindley
36,New york,NY,14859,Tioga,Lockwood,lockwood
36,New york,NY,14860,Seneca,Lodi,lodi
36,New york,NY,14861,Chemung,Lowman,lowman
36,New york,NY,14864,Chemung,Millport,millport
36,New york,NY,14865,Schuyler,Montour falls,montour falls
36,New york,NY,14867,Tompkins,Newfield,newfield
36,New york,NY,14869,Schuyler,Odessa,odessa
36,New york,NY,14870,Steuben,Painted post,painted post
36,New york,NY,14871,Chemung,Pine city,pine city
36,New york,NY,14872,Chemung,Pine valley,pine valley
36,New york,NY,14873,Steuben,Prattsburg,prattsburg
36,New york,NY,14874,Steuben,Pulteney,pulteney
36,New york,NY,14877,Steuben,Rexville,rexville
36,New york,NY,14878,Schuyler,Rock stream,rock stream
36,New york,NY,14879,Steuben,Savona,savona
36,New york,NY,14880,Allegany,Scio,scio
36,New york,NY,14881,Tompkins,Slaterville spri,slaterville spri
36,New york,NY,14882,Tompkins,Lansing,lansing
36,New york,NY,14883,Tioga,Spencer,spencer
36,New york,NY,14884,Allegany,Swain,swain
36,New york,NY,14885,Steuben,Troupsburg,troupsburg
36,New york,NY,14886,Tompkins,Trumansburg,trumansburg
36,New york,NY,14889,Chemung,Van etten,van etten
36,New york,NY,14891,Schuyler,Watkins glen,watkins glen
36,New york,NY,14892,Tioga,Waverly,waverly
36,New york,NY,14894,Chemung,Wellsburg,wellsburg
36,New york,NY,14895,Allegany,Wellsville,wellsville
36,New york,NY,14897,Allegany,Whitesville,whitesville
36,New york,NY,14898,Steuben,Woodhull,woodhull
36,New york,NY,148HH,Chemung,Zcta 148hh,zcta 148hh
36,New york,NY,14901,Chemung,Elmira,elmira
36,New york,NY,14903,Chemung,Elmira heights,elmira heights
36,New york,NY,14904,Chemung,Elmira,elmira
36,New york,NY,14905,Chemung,Elmira,elmira
36,New york,NY,149HH,Chemung,Zcta 149hh,zcta 149hh
